[
  {
    "office": "Arabian Bay Resort",
    "url": "https://postcode.my/pahang-gambang-arabian-bay-resort-26300.html",
    "location": "Arabian Bay Resort",
    "city": "Gambang",
    "state": "Pahang",
    "postcode": "26300",
    "gps_lat": "3.7043358",
    "gps_lng": "103.0483424"
  },
  {
    "office": "Bandar Gambang",
    "url": "https://postcode.my/pahang-gambang-bandar-gambang-26300.html",
    "location": "Bandar Gambang",
    "city": "Gambang",
    "state": "Pahang",
    "postcode": "26300",
    "gps_lat": "3.7266138",
    "gps_lng": "103.121337"
  },
  {
    "office": "Eco Paradise Resort",
    "url": "https://postcode.my/pahang-gambang-eco-paradise-resort-26300.html",
    "location": "Eco Paradise Resort",
    "city": "Gambang",
    "state": "Pahang",
    "postcode": "26300",
    "gps_lat": "3.7460197",
    "gps_lng": "103.0587399"
  },
  {
    "office": "Felda Lepar Hilir 2",
    "url": "https://postcode.my/pahang-gambang-felda-lepar-hilir-2-26330.html",
    "location": "Felda Lepar Hilir 2",
    "city": "Gambang",
    "state": "Pahang",
    "postcode": "26330",
    "gps_lat": "3.6723466",
    "gps_lng": "103.0441379"
  },
  {
    "office": "Felda Lepar Hilir 3",
    "url": "https://postcode.my/pahang-gambang-felda-lepar-hilir-3-26340.html",
    "location": "Felda Lepar Hilir 3",
    "city": "Gambang",
    "state": "Pahang",
    "postcode": "26340",
    "gps_lat": "3.6912534",
    "gps_lng": "103.0543327"
  },
  {
    "office": "Felda Lepar Hilir 4",
    "url": "https://postcode.my/pahang-gambang-felda-lepar-hilir-4-26350.html",
    "location": "Felda Lepar Hilir 4",
    "city": "Gambang",
    "state": "Pahang",
    "postcode": "26350",
    "gps_lat": "3.6641182",
    "gps_lng": "103.0969059"
  },
  {
    "office": "Felda Lepar Hilir 5",
    "url": "https://postcode.my/pahang-gambang-felda-lepar-hilir-5-26360.html",
    "location": "Felda Lepar Hilir 5",
    "city": "Gambang",
    "state": "Pahang",
    "postcode": "26360",
    "gps_lat": "3.6417606",
    "gps_lng": "103.0760273"
  },
  {
    "office": "Felda Lepar Hilir 6",
    "url": "https://postcode.my/pahang-gambang-felda-lepar-hilir-6-26370.html",
    "location": "Felda Lepar Hilir 6",
    "city": "Gambang",
    "state": "Pahang",
    "postcode": "26370",
    "gps_lat": "3.6723466",
    "gps_lng": "103.0441379"
  },
  {
    "office": "Gambang",
    "url": "https://postcode.my/pahang-gambang-gambang-26310.html",
    "location": "Gambang",
    "city": "Gambang",
    "state": "Pahang",
    "postcode": "26310",
    "gps_lat": "3.6535974",
    "gps_lng": "103.0894109"
  },
  {
    "office": "Jalan Bandar Gambang 24",
    "url": "https://postcode.my/pahang-gambang-jalan-bandar-gambang-24-26300.html",
    "location": "Jalan Bandar Gambang 24",
    "city": "Gambang",
    "state": "Pahang",
    "postcode": "26300",
    "gps_lat": "3.710465",
    "gps_lng": "103.1192952"
  },
  {
    "office": "Jalan Bandar Gambang 25",
    "url": "https://postcode.my/pahang-gambang-jalan-bandar-gambang-25-26300.html",
    "location": "Jalan Bandar Gambang 25",
    "city": "Gambang",
    "state": "Pahang",
    "postcode": "26300",
    "gps_lat": "3.710465",
    "gps_lng": "103.1192952"
  },
  {
    "office": "Jalan Besar Gambang",
    "url": "https://postcode.my/pahang-gambang-jalan-besar-gambang-26300.html",
    "location": "Jalan Besar Gambang",
    "city": "Gambang",
    "state": "Pahang",
    "postcode": "26300",
    "gps_lat": "3.7062051",
    "gps_lng": "103.0987149"
  },
  {
    "office": "Jalan Bukit Gambang Utama",
    "url": "https://postcode.my/pahang-gambang-jalan-bukit-gambang-utama-26300.html",
    "location": "Jalan Bukit Gambang Utama",
    "city": "Gambang",
    "state": "Pahang",
    "postcode": "26300",
    "gps_lat": "3.7102788",
    "gps_lng": "103.0516291"
  },
  {
    "office": "Jalan Gambang Damai",
    "url": "https://postcode.my/pahang-gambang-jalan-gambang-damai-26310.html",
    "location": "Jalan Gambang Damai",
    "city": "Gambang",
    "state": "Pahang",
    "postcode": "26310",
    "gps_lat": "3.7014541",
    "gps_lng": "103.047772"
  },
  {
    "office": "Jalan Gambang Damai (1 - 2)",
    "url": "https://postcode.my/pahang-gambang-jalan-gambang-damai-1-2-26310.html",
    "location": "Jalan Gambang Damai (1 - 2)",
    "city": "Gambang",
    "state": "Pahang",
    "postcode": "26310",
    "gps_lat": "3.701224",
    "gps_lng": "103.0464211"
  },
  {
    "office": "Jalan Gambang Makmur",
    "url": "https://postcode.my/pahang-gambang-jalan-gambang-makmur-26300.html",
    "location": "Jalan Gambang Makmur",
    "city": "Gambang",
    "state": "Pahang",
    "postcode": "26300",
    "gps_lat": "3.7187884",
    "gps_lng": "103.1357512"
  },
  {
    "office": "Lepar Hilir",
    "url": "https://postcode.my/pahang-gambang-lepar-hilir-26320.html",
    "location": "Lepar Hilir",
    "city": "Gambang",
    "state": "Pahang",
    "postcode": "26320",
    "gps_lat": "3.6487095",
    "gps_lng": "103.0815414"
  },
  {
    "office": "Lorong Gambang Damai (1 - 20)",
    "url": "https://postcode.my/pahang-gambang-lorong-gambang-damai-1-20-26310.html",
    "location": "Lorong Gambang Damai (1 - 20)",
    "city": "Gambang",
    "state": "Pahang",
    "postcode": "26310",
    "gps_lat": "3.7020203",
    "gps_lng": "103.0469144"
  },
  {
    "office": "Perkampungan Gambang Damai",
    "url": "https://postcode.my/pahang-gambang-perkampungan-gambang-damai-26310.html",
    "location": "Perkampungan Gambang Damai",
    "city": "Gambang",
    "state": "Pahang",
    "postcode": "26310",
    "gps_lat": "3.7014541",
    "gps_lng": "103.047772"
  },
  {
    "office": "Perumahan Seri Fajar 1",
    "url": "https://postcode.my/pahang-gambang-perumahan-seri-fajar-1-26300.html",
    "location": "Perumahan Seri Fajar 1",
    "city": "Gambang",
    "state": "Pahang",
    "postcode": "26300",
    "gps_lat": "3.71338",
    "gps_lng": "103.1306"
  },
  {
    "office": "Pusat Komersial Bandar Gambang",
    "url": "https://postcode.my/pahang-gambang-pusat-komersial-bandar-gambang-26300.html",
    "location": "Pusat Komersial Bandar Gambang",
    "city": "Gambang",
    "state": "Pahang",
    "postcode": "26300",
    "gps_lat": "3.724201",
    "gps_lng": "103.1187589"
  },
  {
    "office": "Sek 7 Bandar Gambang",
    "url": "https://postcode.my/pahang-gambang-sek-7-bandar-gambang-26300.html",
    "location": "Sek 7 Bandar Gambang",
    "city": "Gambang",
    "state": "Pahang",
    "postcode": "26300",
    "gps_lat": "3.7460197",
    "gps_lng": "103.0587399"
  },
  {
    "office": "Sekolah Sukan Malaysia Pahang",
    "url": "https://postcode.my/pahang-gambang-sekolah-sukan-malaysia-pahang-26300.html",
    "location": "Sekolah Sukan Malaysia Pahang",
    "city": "Gambang",
    "state": "Pahang",
    "postcode": "26300",
    "gps_lat": "3.719439",
    "gps_lng": "103.1149058"
  },
  {
    "office": "Sungai Panching Utara",
    "url": "https://postcode.my/pahang-gambang-sungai-panching-utara-26300.html",
    "location": "Sungai Panching Utara",
    "city": "Gambang",
    "state": "Pahang",
    "postcode": "26300",
    "gps_lat": "3.8146211",
    "gps_lng": "103.1606441"
  },
  {
    "office": "Taman Gambang Makmur",
    "url": "https://postcode.my/pahang-gambang-taman-gambang-makmur-26300.html",
    "location": "Taman Gambang Makmur",
    "city": "Gambang",
    "state": "Pahang",
    "postcode": "26300",
    "gps_lat": "3.7043358",
    "gps_lng": "103.0483424"
  }
]
