[
  {
    "office": "Aked niaga",
    "url": "https://postcode.my/perlis-padang-besar-aked-niaga-02100.html",
    "city": "Padang Besar",
    "state": "Perlis",
    "postcode": "02100"
  },
  {
    "office": "Bukit Cabang",
    "url": "https://postcode.my/perlis-padang-besar-bukit-cabang-02100.html",
    "city": "Padang Besar",
    "state": "Perlis",
    "postcode": "02100"
  },
  {
    "office": "Emas Kerajang",
    "url": "https://postcode.my/perlis-padang-besar-emas-kerajang-02100.html",
    "city": "Padang Besar",
    "state": "Perlis",
    "postcode": "02100"
  },
  {
    "office": "Felcra Lubuk Sireh",
    "url": "https://postcode.my/perlis-padang-besar-felcra-lubuk-sireh-02100.html",
    "city": "Padang Besar",
    "state": "Perlis",
    "postcode": "02100"
  },
  {
    "office": "Felda Mata Ayer",
    "url": "https://postcode.my/perlis-padang-besar-felda-mata-ayer-02100.html",
    "city": "Padang Besar",
    "state": "Perlis",
    "postcode": "02100"
  },
  {
    "office": "Felda Rimba Mas",
    "url": "https://postcode.my/perlis-padang-besar-felda-rimba-mas-02100.html",
    "city": "Padang Besar",
    "state": "Perlis",
    "postcode": "02100"
  },
  {
    "office": "Gapura Square",
    "url": "https://postcode.my/perlis-padang-besar-gapura-square-02100.html",
    "city": "Padang Besar",
    "state": "Perlis",
    "postcode": "02100"
  },
  {
    "office": "Gapura squre",
    "url": "https://postcode.my/perlis-padang-besar-gapura-squre-02100.html",
    "city": "Padang Besar",
    "state": "Perlis",
    "postcode": "02100"
  },
  {
    "office": "Jalan Padang Besar (Km 19)",
    "url": "https://postcode.my/perlis-padang-besar-jalan-padang-besar-km-19-02100.html",
    "city": "Padang Besar",
    "state": "Perlis",
    "postcode": "02100"
  },
  {
    "office": "Kampung Alor Dalam (Bukit Chabang)",
    "url": "https://postcode.my/perlis-padang-besar-kampung-alor-dalam-bukit-chabang-02100.html",
    "city": "Padang Besar",
    "state": "Perlis",
    "postcode": "02100"
  },
  {
    "office": "Kampung Asmara",
    "url": "https://postcode.my/perlis-padang-besar-kampung-asmara-02100.html",
    "city": "Padang Besar",
    "state": "Perlis",
    "postcode": "02100"
  },
  {
    "office": "Kampung Baru",
    "url": "https://postcode.my/perlis-padang-besar-kampung-baru-02100.html",
    "city": "Padang Besar",
    "state": "Perlis",
    "postcode": "02100"
  },
  {
    "office": "Kampung Baru Bukit Chabang",
    "url": "https://postcode.my/perlis-padang-besar-kampung-baru-bukit-chabang-02100.html",
    "city": "Padang Besar",
    "state": "Perlis",
    "postcode": "02100"
  },
  {
    "office": "Kampung Baru Jalan Sahabat",
    "url": "https://postcode.my/perlis-padang-besar-kampung-baru-jalan-sahabat-02100.html",
    "city": "Padang Besar",
    "state": "Perlis",
    "postcode": "02100"
  },
  {
    "office": "Kampung Bukit Chabang",
    "url": "https://postcode.my/perlis-padang-besar-kampung-bukit-chabang-02100.html",
    "city": "Padang Besar",
    "state": "Perlis",
    "postcode": "02100"
  },
  {
    "office": "Kampung Chantek",
    "url": "https://postcode.my/perlis-padang-besar-kampung-chantek-02100.html",
    "city": "Padang Besar",
    "state": "Perlis",
    "postcode": "02100"
  },
  {
    "office": "Kampung Guar Tinggi (Titi Tinggi)",
    "url": "https://postcode.my/perlis-padang-besar-kampung-guar-tinggi-titi-tinggi-02100.html",
    "city": "Padang Besar",
    "state": "Perlis",
    "postcode": "02100"
  },
  {
    "office": "Kampung Kok Mak",
    "url": "https://postcode.my/perlis-padang-besar-kampung-kok-mak-02100.html",
    "city": "Padang Besar",
    "state": "Perlis",
    "postcode": "02100"
  },
  {
    "office": "Kampung Kolam",
    "url": "https://postcode.my/perlis-padang-besar-kampung-kolam-02100.html",
    "city": "Padang Besar",
    "state": "Perlis",
    "postcode": "02100"
  },
  {
    "office": "Kampung Masjid",
    "url": "https://postcode.my/perlis-padang-besar-kampung-masjid-02100.html",
    "city": "Padang Besar",
    "state": "Perlis",
    "postcode": "02100"
  },
  {
    "office": "Kampung Melayu",
    "url": "https://postcode.my/perlis-padang-besar-kampung-melayu-02100.html",
    "city": "Padang Besar",
    "state": "Perlis",
    "postcode": "02100"
  },
  {
    "office": "Kampung Padang Mawa",
    "url": "https://postcode.my/perlis-padang-besar-kampung-padang-mawa-02100.html",
    "city": "Padang Besar",
    "state": "Perlis",
    "postcode": "02100"
  },
  {
    "office": "Kampung Petani",
    "url": "https://postcode.my/perlis-padang-besar-kampung-petani-02100.html",
    "city": "Padang Besar",
    "state": "Perlis",
    "postcode": "02100"
  },
  {
    "office": "Kampung Sahabat",
    "url": "https://postcode.my/perlis-padang-besar-kampung-sahabat-02100.html",
    "city": "Padang Besar",
    "state": "Perlis",
    "postcode": "02100"
  },
  {
    "office": "Kampung Sena",
    "url": "https://postcode.my/perlis-padang-besar-kampung-sena-02100.html",
    "city": "Padang Besar",
    "state": "Perlis",
    "postcode": "02100"
  },
  {
    "office": "Kampung Sungai Chuchuh",
    "url": "https://postcode.my/perlis-padang-besar-kampung-sungai-chuchuh-02100.html",
    "city": "Padang Besar",
    "state": "Perlis",
    "postcode": "02100"
  },
  {
    "office": "Kampung Syed Abdan",
    "url": "https://postcode.my/perlis-padang-besar-kampung-syed-abdan-02100.html",
    "city": "Padang Besar",
    "state": "Perlis",
    "postcode": "02100"
  },
  {
    "office": "kampung Tersusun (Batu 20)",
    "url": "https://postcode.my/perlis-padang-besar-kampung-tersusun-batu-20-02100.html",
    "city": "Padang Besar",
    "state": "Perlis",
    "postcode": "02100"
  },
  {
    "office": "Kampung Titi Tinggi",
    "url": "https://postcode.my/perlis-padang-besar-kampung-titi-tinggi-02100.html",
    "city": "Padang Besar",
    "state": "Perlis",
    "postcode": "02100"
  },
  {
    "office": "Kampung Titi Tinggi Hilir",
    "url": "https://postcode.my/perlis-padang-besar-kampung-titi-tinggi-hilir-02100.html",
    "city": "Padang Besar",
    "state": "Perlis",
    "postcode": "02100"
  },
  {
    "office": "Kampung Titi Tinggi Ulu",
    "url": "https://postcode.my/perlis-padang-besar-kampung-titi-tinggi-ulu-02100.html",
    "city": "Padang Besar",
    "state": "Perlis",
    "postcode": "02100"
  },
  {
    "office": "Kampung Tok Wan Nik",
    "url": "https://postcode.my/perlis-padang-besar-kampung-tok-wan-nik-02100.html",
    "city": "Padang Besar",
    "state": "Perlis",
    "postcode": "02100"
  },
  {
    "office": "Kem askar rimba Mab",
    "url": "https://postcode.my/perlis-padang-besar-kem-askar-rimba-mab-02100.html",
    "city": "Padang Besar",
    "state": "Perlis",
    "postcode": "02100"
  },
  {
    "office": "Kem UPP",
    "url": "https://postcode.my/perlis-padang-besar-kem-upp-02100.html",
    "city": "Padang Besar",
    "state": "Perlis",
    "postcode": "02100"
  },
  {
    "office": "Klinik Kesihatan Jln Keretapi",
    "url": "https://postcode.my/perlis-padang-besar-klinik-kesihatan-jln-keretapi-02100.html",
    "city": "Padang Besar",
    "state": "Perlis",
    "postcode": "02100"
  },
  {
    "office": "Kompleks Imigresen",
    "url": "https://postcode.my/perlis-padang-besar-kompleks-imigresen-02100.html",
    "city": "Padang Besar",
    "state": "Perlis",
    "postcode": "02100"
  },
  {
    "office": "Kuarantin Haiwan",
    "url": "https://postcode.my/perlis-padang-besar-kuarantin-haiwan-02100.html",
    "city": "Padang Besar",
    "state": "Perlis",
    "postcode": "02100"
  },
  {
    "office": "Padang Besar",
    "url": "https://postcode.my/perlis-padang-besar-padang-besar-02100.html",
    "city": "Padang Besar",
    "state": "Perlis",
    "postcode": "02100"
  },
  {
    "office": "Pejabat Felda Rimba Mas FRM",
    "url": "https://postcode.my/perlis-padang-besar-pejabat-felda-rimba-mas-frm-02100.html",
    "city": "Padang Besar",
    "state": "Perlis",
    "postcode": "02100"
  },
  {
    "office": "Pejabat Kastam",
    "url": "https://postcode.my/perlis-padang-besar-pejabat-kastam-02100.html",
    "city": "Padang Besar",
    "state": "Perlis",
    "postcode": "02100"
  },
  {
    "office": "Pusat Serenti Bukit Cabang",
    "url": "https://postcode.my/perlis-padang-besar-pusat-serenti-bukit-cabang-02100.html",
    "city": "Padang Besar",
    "state": "Perlis",
    "postcode": "02100"
  },
  {
    "office": "Sekolah Menengah Padang Besar",
    "url": "https://postcode.my/perlis-padang-besar-sekolah-menengah-padang-besar-02100.html",
    "city": "Padang Besar",
    "state": "Perlis",
    "postcode": "02100"
  },
  {
    "office": "Taman Bunga Cempaka",
    "url": "https://postcode.my/perlis-padang-besar-taman-bunga-cempaka-02100.html",
    "city": "Padang Besar",
    "state": "Perlis",
    "postcode": "02100"
  },
  {
    "office": "Taman Bunga Cina",
    "url": "https://postcode.my/perlis-padang-besar-taman-bunga-cina-02100.html",
    "city": "Padang Besar",
    "state": "Perlis",
    "postcode": "02100"
  },
  {
    "office": "Taman Kastam Baru",
    "url": "https://postcode.my/perlis-padang-besar-taman-kastam-baru-02100.html",
    "city": "Padang Besar",
    "state": "Perlis",
    "postcode": "02100"
  },
  {
    "office": "Taman Kim",
    "url": "https://postcode.my/perlis-padang-besar-taman-kim-02100.html",
    "city": "Padang Besar",
    "state": "Perlis",
    "postcode": "02100"
  },
  {
    "office": "Taman Kim 2",
    "url": "https://postcode.my/perlis-padang-besar-taman-kim-2-02100.html",
    "city": "Padang Besar",
    "state": "Perlis",
    "postcode": "02100"
  },
  {
    "office": "Taman Perumahan Awam",
    "url": "https://postcode.my/perlis-padang-besar-taman-perumahan-awam-02100.html",
    "city": "Padang Besar",
    "state": "Perlis",
    "postcode": "02100"
  },
  {
    "office": "Taman Singgah Sana",
    "url": "https://postcode.my/perlis-padang-besar-taman-singgah-sana-02100.html",
    "city": "Padang Besar",
    "state": "Perlis",
    "postcode": "02100"
  },
  {
    "office": "Taman Utara Jaya (Fasa 1 - 3)",
    "url": "https://postcode.my/perlis-padang-besar-taman-utara-jaya-fasa-1-3-02100.html",
    "city": "Padang Besar",
    "state": "Perlis",
    "postcode": "02100"
  }
]