[
  {
    "office": "Arau",
    "url": "https://postcode.my/perlis-arau-arau-02600.html",
    "city": "Arau",
    "state": "Perlis",
    "postcode": "02600"
  },
  {
    "office": "Arau - Beg berkunci",
    "url": "https://postcode.my/perlis-arau-arau-beg-berkunci-02609.html",
    "city": "Arau",
    "state": "Perlis",
    "postcode": "02609"
  },
  {
    "office": "Arau - Peti surat",
    "url": "https://postcode.my/perlis-arau-arau-peti-surat-02607.html",
    "city": "Arau",
    "state": "Perlis",
    "postcode": "02607"
  },
  {
    "office": "Guar Sanji",
    "url": "https://postcode.my/perlis-arau-guar-sanji-02600.html",
    "city": "Arau",
    "state": "Perlis",
    "postcode": "02600"
  },
  {
    "office": "Kampung Alor Merah",
    "url": "https://postcode.my/perlis-arau-kampung-alor-merah-02600.html",
    "city": "Arau",
    "state": "Perlis",
    "postcode": "02600"
  },
  {
    "office": "Kampung Bakong (Arau)",
    "url": "https://postcode.my/perlis-arau-kampung-bakong-arau-02600.html",
    "city": "Arau",
    "state": "Perlis",
    "postcode": "02600"
  },
  {
    "office": "Kampung Banat",
    "url": "https://postcode.my/perlis-arau-kampung-banat-02600.html",
    "city": "Arau",
    "state": "Perlis",
    "postcode": "02600"
  },
  {
    "office": "Kampung Batas Liku",
    "url": "https://postcode.my/perlis-arau-kampung-batas-liku-02600.html",
    "city": "Arau",
    "state": "Perlis",
    "postcode": "02600"
  },
  {
    "office": "Kampung Belat Batu",
    "url": "https://postcode.my/perlis-arau-kampung-belat-batu-02600.html",
    "city": "Arau",
    "state": "Perlis",
    "postcode": "02600"
  },
  {
    "office": "Kampung Belat Raja",
    "url": "https://postcode.my/perlis-arau-kampung-belat-raja-02600.html",
    "city": "Arau",
    "state": "Perlis",
    "postcode": "02600"
  },
  {
    "office": "Kampung Belukar",
    "url": "https://postcode.my/perlis-arau-kampung-belukar-02600.html",
    "city": "Arau",
    "state": "Perlis",
    "postcode": "02600"
  },
  {
    "office": "Kampung Bohor Mengkung",
    "url": "https://postcode.my/perlis-arau-kampung-bohor-mengkung-02600.html",
    "city": "Arau",
    "state": "Perlis",
    "postcode": "02600"
  },
  {
    "office": "Kampung Bohor Mentalun",
    "url": "https://postcode.my/perlis-arau-kampung-bohor-mentalun-02600.html",
    "city": "Arau",
    "state": "Perlis",
    "postcode": "02600"
  },
  {
    "office": "Kampung Changkat Jawi",
    "url": "https://postcode.my/perlis-arau-kampung-changkat-jawi-02600.html",
    "city": "Arau",
    "state": "Perlis",
    "postcode": "02600"
  },
  {
    "office": "Kampung Changkat Kabu",
    "url": "https://postcode.my/perlis-arau-kampung-changkat-kabu-02600.html",
    "city": "Arau",
    "state": "Perlis",
    "postcode": "02600"
  },
  {
    "office": "Kampung Chermai",
    "url": "https://postcode.my/perlis-arau-kampung-chermai-02600.html",
    "city": "Arau",
    "state": "Perlis",
    "postcode": "02600"
  },
  {
    "office": "Kampung Guar Gajah",
    "url": "https://postcode.my/perlis-arau-kampung-guar-gajah-02600.html",
    "city": "Arau",
    "state": "Perlis",
    "postcode": "02600"
  },
  {
    "office": "Kampung Guring",
    "url": "https://postcode.my/perlis-arau-kampung-guring-02600.html",
    "city": "Arau",
    "state": "Perlis",
    "postcode": "02600"
  },
  {
    "office": "Kampung Hutan Kandis",
    "url": "https://postcode.my/perlis-arau-kampung-hutan-kandis-02600.html",
    "city": "Arau",
    "state": "Perlis",
    "postcode": "02600"
  },
  {
    "office": "Kampung Jelempok",
    "url": "https://postcode.my/perlis-arau-kampung-jelempok-02600.html",
    "city": "Arau",
    "state": "Perlis",
    "postcode": "02600"
  },
  {
    "office": "Kampung Katong",
    "url": "https://postcode.my/perlis-arau-kampung-katong-02600.html",
    "city": "Arau",
    "state": "Perlis",
    "postcode": "02600"
  },
  {
    "office": "Kampung Kuala Tunggang",
    "url": "https://postcode.my/perlis-arau-kampung-kuala-tunggang-02600.html",
    "city": "Arau",
    "state": "Perlis",
    "postcode": "02600"
  },
  {
    "office": "Kampung Kubang Mat Tanggok",
    "url": "https://postcode.my/perlis-arau-kampung-kubang-mat-tanggok-02600.html",
    "city": "Arau",
    "state": "Perlis",
    "postcode": "02600"
  },
  {
    "office": "Kampung Kubang Siput",
    "url": "https://postcode.my/perlis-arau-kampung-kubang-siput-02600.html",
    "city": "Arau",
    "state": "Perlis",
    "postcode": "02600"
  },
  {
    "office": "Kampung Padang Biak",
    "url": "https://postcode.my/perlis-arau-kampung-padang-biak-02600.html",
    "city": "Arau",
    "state": "Perlis",
    "postcode": "02600"
  },
  {
    "office": "Kampung Padang Siding",
    "url": "https://postcode.my/perlis-arau-kampung-padang-siding-02600.html",
    "city": "Arau",
    "state": "Perlis",
    "postcode": "02600"
  },
  {
    "office": "Kampung Padang Telela",
    "url": "https://postcode.my/perlis-arau-kampung-padang-telela-02600.html",
    "city": "Arau",
    "state": "Perlis",
    "postcode": "02600"
  },
  {
    "office": "Kampung Paloh",
    "url": "https://postcode.my/perlis-arau-kampung-paloh-02600.html",
    "city": "Arau",
    "state": "Perlis",
    "postcode": "02600"
  },
  {
    "office": "Kampung Pauh",
    "url": "https://postcode.my/perlis-arau-kampung-pauh-02600.html",
    "city": "Arau",
    "state": "Perlis",
    "postcode": "02600"
  },
  {
    "office": "Kampung Pida 3 Lama",
    "url": "https://postcode.my/perlis-arau-kampung-pida-3-lama-02600.html",
    "city": "Arau",
    "state": "Perlis",
    "postcode": "02600"
  },
  {
    "office": "Kampung Pulau Pichai",
    "url": "https://postcode.my/perlis-arau-kampung-pulau-pichai-02600.html",
    "city": "Arau",
    "state": "Perlis",
    "postcode": "02600"
  },
  {
    "office": "Kampung Sena",
    "url": "https://postcode.my/perlis-arau-kampung-sena-02600.html",
    "city": "Arau",
    "state": "Perlis",
    "postcode": "02600"
  },
  {
    "office": "Kampung Stesen",
    "url": "https://postcode.my/perlis-arau-kampung-stesen-02600.html",
    "city": "Arau",
    "state": "Perlis",
    "postcode": "02600"
  },
  {
    "office": "Kampung Tambun Tulang",
    "url": "https://postcode.my/perlis-arau-kampung-tambun-tulang-02600.html",
    "city": "Arau",
    "state": "Perlis",
    "postcode": "02600"
  },
  {
    "office": "Kampung Telaga Haji Latif",
    "url": "https://postcode.my/perlis-arau-kampung-telaga-haji-latif-02600.html",
    "city": "Arau",
    "state": "Perlis",
    "postcode": "02600"
  },
  {
    "office": "Kampung Telok",
    "url": "https://postcode.my/perlis-arau-kampung-telok-02600.html",
    "city": "Arau",
    "state": "Perlis",
    "postcode": "02600"
  },
  {
    "office": "Kampung Titi Besi",
    "url": "https://postcode.my/perlis-arau-kampung-titi-besi-02600.html",
    "city": "Arau",
    "state": "Perlis",
    "postcode": "02600"
  },
  {
    "office": "Kampung Ulu Pauh",
    "url": "https://postcode.my/perlis-arau-kampung-ulu-pauh-02600.html",
    "city": "Arau",
    "state": "Perlis",
    "postcode": "02600"
  },
  {
    "office": "Pauh",
    "url": "https://postcode.my/perlis-arau-pauh-02600.html",
    "city": "Arau",
    "state": "Perlis",
    "postcode": "02600"
  },
  {
    "office": "Rani Estate",
    "url": "https://postcode.my/perlis-arau-rani-estate-02600.html",
    "city": "Arau",
    "state": "Perlis",
    "postcode": "02600"
  },
  {
    "office": "Taman Desa Pauh",
    "url": "https://postcode.my/perlis-arau-taman-desa-pauh-02600.html",
    "city": "Arau",
    "state": "Perlis",
    "postcode": "02600"
  },
  {
    "office": "Taman Pauh Indah",
    "url": "https://postcode.my/perlis-arau-taman-pauh-indah-02600.html",
    "city": "Arau",
    "state": "Perlis",
    "postcode": "02600"
  },
  {
    "office": "Taman Seri Idaman",
    "url": "https://postcode.my/perlis-arau-taman-seri-idaman-02600.html",
    "city": "Arau",
    "state": "Perlis",
    "postcode": "02600"
  },
  {
    "office": "Taman Seri Wangi",
    "url": "https://postcode.my/perlis-arau-taman-seri-wangi-02600.html",
    "city": "Arau",
    "state": "Perlis",
    "postcode": "02600"
  },
  {
    "office": "Taman Sri Pauh",
    "url": "https://postcode.my/perlis-arau-taman-sri-pauh-02600.html",
    "city": "Arau",
    "state": "Perlis",
    "postcode": "02600"
  },
  {
    "office": "Taman Utara Guar Sanji",
    "url": "https://postcode.my/perlis-arau-taman-utara-guar-sanji-02600.html",
    "city": "Arau",
    "state": "Perlis",
    "postcode": "02600"
  },
  {
    "office": "UiTM Arau",
    "url": "https://postcode.my/perlis-arau-uitm-arau-02600.html",
    "city": "Arau",
    "state": "Perlis",
    "postcode": "02600"
  }
]