[
  {
    "office": "Bohor Mali",
    "url": "https://postcode.my/perlis-simpang-ampat-bohor-mali-02700.html",
    "city": "Simpang Ampat",
    "state": "Perlis",
    "postcode": "02700"
  },
  {
    "office": "Kampung Banir Tembus",
    "url": "https://postcode.my/perlis-simpang-ampat-kampung-banir-tembus-02700.html",
    "city": "Simpang Ampat",
    "state": "Perlis",
    "postcode": "02700"
  },
  {
    "office": "Kampung Batas Lentang",
    "url": "https://postcode.my/perlis-simpang-ampat-kampung-batas-lentang-02700.html",
    "city": "Simpang Ampat",
    "state": "Perlis",
    "postcode": "02700"
  },
  {
    "office": "Kampung Bendang Baru",
    "url": "https://postcode.my/perlis-simpang-ampat-kampung-bendang-baru-02700.html",
    "city": "Simpang Ampat",
    "state": "Perlis",
    "postcode": "02700"
  },
  {
    "office": "Kampung Berjaya",
    "url": "https://postcode.my/perlis-simpang-ampat-kampung-berjaya-02700.html",
    "city": "Simpang Ampat",
    "state": "Perlis",
    "postcode": "02700"
  },
  {
    "office": "Kampung Bohor Lalang",
    "url": "https://postcode.my/perlis-simpang-ampat-kampung-bohor-lalang-02700.html",
    "city": "Simpang Ampat",
    "state": "Perlis",
    "postcode": "02700"
  },
  {
    "office": "Kampung Bonggor Kudong",
    "url": "https://postcode.my/perlis-simpang-ampat-kampung-bonggor-kudong-02700.html",
    "city": "Simpang Ampat",
    "state": "Perlis",
    "postcode": "02700"
  },
  {
    "office": "Kampung Bunga Mas",
    "url": "https://postcode.my/perlis-simpang-ampat-kampung-bunga-mas-02700.html",
    "city": "Simpang Ampat",
    "state": "Perlis",
    "postcode": "02700"
  },
  {
    "office": "Kampung Chantek Bangun",
    "url": "https://postcode.my/perlis-simpang-ampat-kampung-chantek-bangun-02700.html",
    "city": "Simpang Ampat",
    "state": "Perlis",
    "postcode": "02700"
  },
  {
    "office": "Kampung Che Ok",
    "url": "https://postcode.my/perlis-simpang-ampat-kampung-che-ok-02700.html",
    "city": "Simpang Ampat",
    "state": "Perlis",
    "postcode": "02700"
  },
  {
    "office": "Kampung Chemumar",
    "url": "https://postcode.my/perlis-simpang-ampat-kampung-chemumar-02700.html",
    "city": "Simpang Ampat",
    "state": "Perlis",
    "postcode": "02700"
  },
  {
    "office": "Kampung Jawi Endol",
    "url": "https://postcode.my/perlis-simpang-ampat-kampung-jawi-endol-02700.html",
    "city": "Simpang Ampat",
    "state": "Perlis",
    "postcode": "02700"
  },
  {
    "office": "Kampung Kenangan",
    "url": "https://postcode.my/perlis-simpang-ampat-kampung-kenangan-02700.html",
    "city": "Simpang Ampat",
    "state": "Perlis",
    "postcode": "02700"
  },
  {
    "office": "Kampung Kepala Batas Pauh",
    "url": "https://postcode.my/perlis-simpang-ampat-kampung-kepala-batas-pauh-02800.html",
    "city": "Simpang Ampat",
    "state": "Perlis",
    "postcode": "02800"
  },
  {
    "office": "Kampung Kerbau Belaga",
    "url": "https://postcode.my/perlis-simpang-ampat-kampung-kerbau-belaga-02800.html",
    "city": "Simpang Ampat",
    "state": "Perlis",
    "postcode": "02800"
  },
  {
    "office": "Kampung Lat Seribu",
    "url": "https://postcode.my/perlis-simpang-ampat-kampung-lat-seribu-02700.html",
    "city": "Simpang Ampat",
    "state": "Perlis",
    "postcode": "02700"
  },
  {
    "office": "Kampung Long Boh",
    "url": "https://postcode.my/perlis-simpang-ampat-kampung-long-boh-02700.html",
    "city": "Simpang Ampat",
    "state": "Perlis",
    "postcode": "02700"
  },
  {
    "office": "Kampung Matang Keriang",
    "url": "https://postcode.my/perlis-simpang-ampat-kampung-matang-keriang-02800.html",
    "city": "Simpang Ampat",
    "state": "Perlis",
    "postcode": "02800"
  },
  {
    "office": "Kampung Matang Kersek",
    "url": "https://postcode.my/perlis-simpang-ampat-kampung-matang-kersek-02700.html",
    "city": "Simpang Ampat",
    "state": "Perlis",
    "postcode": "02700"
  },
  {
    "office": "Kampung Melintang",
    "url": "https://postcode.my/perlis-simpang-ampat-kampung-melintang-02700.html",
    "city": "Simpang Ampat",
    "state": "Perlis",
    "postcode": "02700"
  },
  {
    "office": "Kampung Mua",
    "url": "https://postcode.my/perlis-simpang-ampat-kampung-mua-02700.html",
    "city": "Simpang Ampat",
    "state": "Perlis",
    "postcode": "02700"
  },
  {
    "office": "Kampung Padang Benta",
    "url": "https://postcode.my/perlis-simpang-ampat-kampung-padang-benta-02700.html",
    "city": "Simpang Ampat",
    "state": "Perlis",
    "postcode": "02700"
  },
  {
    "office": "Kampung Padang Gelam",
    "url": "https://postcode.my/perlis-simpang-ampat-kampung-padang-gelam-02800.html",
    "city": "Simpang Ampat",
    "state": "Perlis",
    "postcode": "02800"
  },
  {
    "office": "Kampung Padang Keria",
    "url": "https://postcode.my/perlis-simpang-ampat-kampung-padang-keria-02800.html",
    "city": "Simpang Ampat",
    "state": "Perlis",
    "postcode": "02800"
  },
  {
    "office": "Kampung Padang Petani",
    "url": "https://postcode.my/perlis-simpang-ampat-kampung-padang-petani-02700.html",
    "city": "Simpang Ampat",
    "state": "Perlis",
    "postcode": "02700"
  },
  {
    "office": "Kampung Pauh Tiga Beradek",
    "url": "https://postcode.my/perlis-simpang-ampat-kampung-pauh-tiga-beradek-02700.html",
    "city": "Simpang Ampat",
    "state": "Perlis",
    "postcode": "02700"
  },
  {
    "office": "Kampung Permatang Bongor",
    "url": "https://postcode.my/perlis-simpang-ampat-kampung-permatang-bongor-02700.html",
    "city": "Simpang Ampat",
    "state": "Perlis",
    "postcode": "02700"
  },
  {
    "office": "Kampung Permatang Limau Manis",
    "url": "https://postcode.my/perlis-simpang-ampat-kampung-permatang-limau-manis-02700.html",
    "city": "Simpang Ampat",
    "state": "Perlis",
    "postcode": "02700"
  },
  {
    "office": "Kampung Permatang Pauh",
    "url": "https://postcode.my/perlis-simpang-ampat-kampung-permatang-pauh-02700.html",
    "city": "Simpang Ampat",
    "state": "Perlis",
    "postcode": "02700"
  },
  {
    "office": "Kampung Permatang Pelangu",
    "url": "https://postcode.my/perlis-simpang-ampat-kampung-permatang-pelangu-02800.html",
    "city": "Simpang Ampat",
    "state": "Perlis",
    "postcode": "02800"
  },
  {
    "office": "Kampung Pulau",
    "url": "https://postcode.my/perlis-simpang-ampat-kampung-pulau-02700.html",
    "city": "Simpang Ampat",
    "state": "Perlis",
    "postcode": "02700"
  },
  {
    "office": "Kampung Rama",
    "url": "https://postcode.my/perlis-simpang-ampat-kampung-rama-02800.html",
    "city": "Simpang Ampat",
    "state": "Perlis",
    "postcode": "02800"
  },
  {
    "office": "Kampung Sematang Serdang",
    "url": "https://postcode.my/perlis-simpang-ampat-kampung-sematang-serdang-02700.html",
    "city": "Simpang Ampat",
    "state": "Perlis",
    "postcode": "02700"
  },
  {
    "office": "Kampung Serdang",
    "url": "https://postcode.my/perlis-simpang-ampat-kampung-serdang-02700.html",
    "city": "Simpang Ampat",
    "state": "Perlis",
    "postcode": "02700"
  },
  {
    "office": "Kampung Simpang Sanglang",
    "url": "https://postcode.my/perlis-simpang-ampat-kampung-simpang-sanglang-02800.html",
    "city": "Simpang Ampat",
    "state": "Perlis",
    "postcode": "02800"
  },
  {
    "office": "Kampung Sungai Baru",
    "url": "https://postcode.my/perlis-simpang-ampat-kampung-sungai-baru-02700.html",
    "city": "Simpang Ampat",
    "state": "Perlis",
    "postcode": "02700"
  },
  {
    "office": "Kampung Sungai Belati",
    "url": "https://postcode.my/perlis-simpang-ampat-kampung-sungai-belati-02700.html",
    "city": "Simpang Ampat",
    "state": "Perlis",
    "postcode": "02700"
  },
  {
    "office": "Kampung Sungai Bugis",
    "url": "https://postcode.my/perlis-simpang-ampat-kampung-sungai-bugis-02700.html",
    "city": "Simpang Ampat",
    "state": "Perlis",
    "postcode": "02700"
  },
  {
    "office": "Kampung Sungai Padang",
    "url": "https://postcode.my/perlis-simpang-ampat-kampung-sungai-padang-02700.html",
    "city": "Simpang Ampat",
    "state": "Perlis",
    "postcode": "02700"
  },
  {
    "office": "Kampung Tanah Timbul",
    "url": "https://postcode.my/perlis-simpang-ampat-kampung-tanah-timbul-02800.html",
    "city": "Simpang Ampat",
    "state": "Perlis",
    "postcode": "02800"
  },
  {
    "office": "Kampung Tebuk",
    "url": "https://postcode.my/perlis-simpang-ampat-kampung-tebuk-02700.html",
    "city": "Simpang Ampat",
    "state": "Perlis",
    "postcode": "02700"
  },
  {
    "office": "Kampung Titi Beratap",
    "url": "https://postcode.my/perlis-simpang-ampat-kampung-titi-beratap-02700.html",
    "city": "Simpang Ampat",
    "state": "Perlis",
    "postcode": "02700"
  },
  {
    "office": "Kampung Tok Pulau",
    "url": "https://postcode.my/perlis-simpang-ampat-kampung-tok-pulau-02700.html",
    "city": "Simpang Ampat",
    "state": "Perlis",
    "postcode": "02700"
  },
  {
    "office": "Simpang Ampat",
    "url": "https://postcode.my/perlis-simpang-ampat-simpang-ampat-02700.html",
    "city": "Simpang Ampat",
    "state": "Perlis",
    "postcode": "02700"
  },
  {
    "office": "Simpang Ampat - Beg berkunci",
    "url": "https://postcode.my/perlis-simpang-ampat-simpang-ampat-beg-berkunci-02709.html",
    "city": "Simpang Ampat",
    "state": "Perlis",
    "postcode": "02709"
  },
  {
    "office": "Simpang Ampat - Peti surat",
    "url": "https://postcode.my/perlis-simpang-ampat-simpang-ampat-peti-surat-02707.html",
    "city": "Simpang Ampat",
    "state": "Perlis",
    "postcode": "02707"
  },
  {
    "office": "Taman Cendera Wasih",
    "url": "https://postcode.my/perlis-simpang-ampat-taman-cendera-wasih-02700.html",
    "city": "Simpang Ampat",
    "state": "Perlis",
    "postcode": "02700"
  },
  {
    "office": "Taman Pelangi",
    "url": "https://postcode.my/perlis-simpang-ampat-taman-pelangi-02700.html",
    "city": "Simpang Ampat",
    "state": "Perlis",
    "postcode": "02700"
  }
]