[
  {
    "office": "Akauntan Negeri",
    "url": "https://postcode.my/perlis-kangar-akauntan-negeri-01594.html",
    "city": "Kangar",
    "state": "Perlis",
    "postcode": "01594"
  },
  {
    "office": "Alor Redeh",
    "url": "https://postcode.my/perlis-kangar-alor-redeh-01000.html",
    "city": "Kangar",
    "state": "Perlis",
    "postcode": "01000"
  },
  {
    "office": "Alor Tok Terang",
    "url": "https://postcode.my/perlis-kangar-alor-tok-terang-01000.html",
    "city": "Kangar",
    "state": "Perlis",
    "postcode": "01000"
  },
  {
    "office": "Amanah Raya Berhad",
    "url": "https://postcode.my/perlis-kangar-amanah-raya-berhad-01508.html",
    "city": "Kangar",
    "state": "Perlis",
    "postcode": "01508"
  },
  {
    "office": "Bahagian Perlesenan - Kementerian Penerangan",
    "url": "https://postcode.my/perlis-kangar-bahagian-perlesenan-kementerian-penerangan-01610.html",
    "city": "Kangar",
    "state": "Perlis",
    "postcode": "01610"
  },
  {
    "office": "Balai Polis Mata Air",
    "url": "https://postcode.my/perlis-kangar-balai-polis-mata-air-02500.html",
    "city": "Kangar",
    "state": "Perlis",
    "postcode": "02500"
  },
  {
    "office": "Beseri",
    "url": "https://postcode.my/perlis-kangar-beseri-02400.html",
    "city": "Kangar",
    "state": "Perlis",
    "postcode": "02400"
  },
  {
    "office": "Beseri Dalam",
    "url": "https://postcode.my/perlis-kangar-beseri-dalam-02400.html",
    "city": "Kangar",
    "state": "Perlis",
    "postcode": "02400"
  },
  {
    "office": "Bilal Uduh",
    "url": "https://postcode.my/perlis-kangar-bilal-uduh-02400.html",
    "city": "Kangar",
    "state": "Perlis",
    "postcode": "02400"
  },
  {
    "office": "Biro Bantuan Guaman",
    "url": "https://postcode.my/perlis-kangar-biro-bantuan-guaman-01504.html",
    "city": "Kangar",
    "state": "Perlis",
    "postcode": "01504"
  },
  {
    "office": "Biro Pengaduan Awam",
    "url": "https://postcode.my/perlis-kangar-biro-pengaduan-awam-01505.html",
    "city": "Kangar",
    "state": "Perlis",
    "postcode": "01505"
  },
  {
    "office": "Bohor Gelam",
    "url": "https://postcode.my/perlis-kangar-bohor-gelam-01000.html",
    "city": "Kangar",
    "state": "Perlis",
    "postcode": "01000"
  },
  {
    "office": "Bohor Madi",
    "url": "https://postcode.my/perlis-kangar-bohor-madi-02400.html",
    "city": "Kangar",
    "state": "Perlis",
    "postcode": "02400"
  },
  {
    "office": "Bukit Chuping",
    "url": "https://postcode.my/perlis-kangar-bukit-chuping-02500.html",
    "city": "Kangar",
    "state": "Perlis",
    "postcode": "02500"
  },
  {
    "office": "Bukit Keteri",
    "url": "https://postcode.my/perlis-kangar-bukit-keteri-02400.html",
    "city": "Kangar",
    "state": "Perlis",
    "postcode": "02400"
  },
  {
    "office": "Bukit Keteri",
    "url": "https://postcode.my/perlis-kangar-bukit-keteri-02450.html",
    "city": "Kangar",
    "state": "Perlis",
    "postcode": "02450"
  },
  {
    "office": "Dewan Undangan Negeri",
    "url": "https://postcode.my/perlis-kangar-dewan-undangan-negeri-01680.html",
    "city": "Kangar",
    "state": "Perlis",
    "postcode": "01680"
  },
  {
    "office": "DYMM Tuanku Raja Perlis",
    "url": "https://postcode.my/perlis-kangar-dymm-tuanku-raja-perlis-01500.html",
    "city": "Kangar",
    "state": "Perlis",
    "postcode": "01500"
  },
  {
    "office": "Empangan Timah Tassoh JPS",
    "url": "https://postcode.my/perlis-kangar-empangan-timah-tassoh-jps-02400.html",
    "city": "Kangar",
    "state": "Perlis",
    "postcode": "02400"
  },
  {
    "office": "Felda Chuping",
    "url": "https://postcode.my/perlis-kangar-felda-chuping-02500.html",
    "city": "Kangar",
    "state": "Perlis",
    "postcode": "02500"
  },
  {
    "office": "Guar Panji",
    "url": "https://postcode.my/perlis-kangar-guar-panji-02400.html",
    "city": "Kangar",
    "state": "Perlis",
    "postcode": "02400"
  },
  {
    "office": "Guar Panji",
    "url": "https://postcode.my/perlis-kangar-guar-panji-02450.html",
    "city": "Kangar",
    "state": "Perlis",
    "postcode": "02450"
  },
  {
    "office": "Hospital Kangar",
    "url": "https://postcode.my/perlis-kangar-hospital-kangar-01586.html",
    "city": "Kangar",
    "state": "Perlis",
    "postcode": "01586"
  },
  {
    "office": "Hutan Lembah",
    "url": "https://postcode.my/perlis-kangar-hutan-lembah-02500.html",
    "city": "Kangar",
    "state": "Perlis",
    "postcode": "02500"
  },
  {
    "office": "Institut Kemahiran Mara",
    "url": "https://postcode.my/perlis-kangar-institut-kemahiran-mara-02400.html",
    "city": "Kangar",
    "state": "Perlis",
    "postcode": "02400"
  },
  {
    "office": "Jabatan Agama Islam Perlis",
    "url": "https://postcode.my/perlis-kangar-jabatan-agama-islam-perlis-01676.html",
    "city": "Kangar",
    "state": "Perlis",
    "postcode": "01676"
  },
  {
    "office": "Jabatan Audit Negeri",
    "url": "https://postcode.my/perlis-kangar-jabatan-audit-negeri-01518.html",
    "city": "Kangar",
    "state": "Perlis",
    "postcode": "01518"
  },
  {
    "office": "Jabatan Belia & Sukan",
    "url": "https://postcode.my/perlis-kangar-jabatan-belia-sukan-01570.html",
    "city": "Kangar",
    "state": "Perlis",
    "postcode": "01570"
  },
  {
    "office": "Jabatan Bomba & Penyelamat",
    "url": "https://postcode.my/perlis-kangar-jabatan-bomba-penyelamat-01648.html",
    "city": "Kangar",
    "state": "Perlis",
    "postcode": "01648"
  },
  {
    "office": "Jabatan Haiwan",
    "url": "https://postcode.my/perlis-kangar-jabatan-haiwan-01630.html",
    "city": "Kangar",
    "state": "Perlis",
    "postcode": "01630"
  },
  {
    "office": "Jabatan Imigresen",
    "url": "https://postcode.my/perlis-kangar-jabatan-imigresen-01550.html",
    "city": "Kangar",
    "state": "Perlis",
    "postcode": "01550"
  },
  {
    "office": "Jabatan Kastam & Eksais Di Raja",
    "url": "https://postcode.my/perlis-kangar-jabatan-kastam-eksais-di-raja-01596.html",
    "city": "Kangar",
    "state": "Perlis",
    "postcode": "01596"
  },
  {
    "office": "Jabatan Kebajikan Masyarakat",
    "url": "https://postcode.my/perlis-kangar-jabatan-kebajikan-masyarakat-01564.html",
    "city": "Kangar",
    "state": "Perlis",
    "postcode": "01564"
  },
  {
    "office": "Jabatan KeBudayaan & Kesenian",
    "url": "https://postcode.my/perlis-kangar-jabatan-kebudayaan-kesenian-01694.html",
    "city": "Kangar",
    "state": "Perlis",
    "postcode": "01694"
  },
  {
    "office": "Jabatan Kemajuan Masyarakat (Kemas)",
    "url": "https://postcode.my/perlis-kangar-jabatan-kemajuan-masyarakat-kemas-01606.html",
    "city": "Kangar",
    "state": "Perlis",
    "postcode": "01606"
  },
  {
    "office": "Jabatan Kerja Raya",
    "url": "https://postcode.my/perlis-kangar-jabatan-kerja-raya-01582.html",
    "city": "Kangar",
    "state": "Perlis",
    "postcode": "01582"
  },
  {
    "office": "Jabatan Keselamatan Sosial (Perkeso)",
    "url": "https://postcode.my/perlis-kangar-jabatan-keselamatan-sosial-perkeso-01538.html",
    "city": "Kangar",
    "state": "Perlis",
    "postcode": "01538"
  },
  {
    "office": "Jabatan Kesihatan",
    "url": "https://postcode.my/perlis-kangar-jabatan-kesihatan-01590.html",
    "city": "Kangar",
    "state": "Perlis",
    "postcode": "01590"
  },
  {
    "office": "Jabatan Pembangunan Koperasi",
    "url": "https://postcode.my/perlis-kangar-jabatan-pembangunan-koperasi-01608.html",
    "city": "Kangar",
    "state": "Perlis",
    "postcode": "01608"
  },
  {
    "office": "Jabatan Pemegang Harta",
    "url": "https://postcode.my/perlis-kangar-jabatan-pemegang-harta-01516.html",
    "city": "Kangar",
    "state": "Perlis",
    "postcode": "01516"
  },
  {
    "office": "Jabatan Pendaftaran Negara",
    "url": "https://postcode.my/perlis-kangar-jabatan-pendaftaran-negara-01551.html",
    "city": "Kangar",
    "state": "Perlis",
    "postcode": "01551"
  },
  {
    "office": "Jabatan Pendidikan",
    "url": "https://postcode.my/perlis-kangar-jabatan-pendidikan-01604.html",
    "city": "Kangar",
    "state": "Perlis",
    "postcode": "01604"
  },
  {
    "office": "Jabatan Penerangan",
    "url": "https://postcode.my/perlis-kangar-jabatan-penerangan-01612.html",
    "city": "Kangar",
    "state": "Perlis",
    "postcode": "01612"
  },
  {
    "office": "Jabatan Pengairan & Saliran",
    "url": "https://postcode.my/perlis-kangar-jabatan-pengairan-saliran-01626.html",
    "city": "Kangar",
    "state": "Perlis",
    "postcode": "01626"
  },
  {
    "office": "Jabatan Pengangkutan Jalan",
    "url": "https://postcode.my/perlis-kangar-jabatan-pengangkutan-jalan-01620.html",
    "city": "Kangar",
    "state": "Perlis",
    "postcode": "01620"
  },
  {
    "office": "Jabatan Penyiaran",
    "url": "https://postcode.my/perlis-kangar-jabatan-penyiaran-01614.html",
    "city": "Kangar",
    "state": "Perlis",
    "postcode": "01614"
  },
  {
    "office": "Jabatan Perancang Bandar & Desa",
    "url": "https://postcode.my/perlis-kangar-jabatan-perancang-bandar-desa-01646.html",
    "city": "Kangar",
    "state": "Perlis",
    "postcode": "01646"
  },
  {
    "office": "Jabatan Perangkaan",
    "url": "https://postcode.my/perlis-kangar-jabatan-perangkaan-01514.html",
    "city": "Kangar",
    "state": "Perlis",
    "postcode": "01514"
  },
  {
    "office": "Jabatan Perhilitan",
    "url": "https://postcode.my/perlis-kangar-jabatan-perhilitan-01664.html",
    "city": "Kangar",
    "state": "Perlis",
    "postcode": "01664"
  },
  {
    "office": "Jabatan Perhutanan",
    "url": "https://postcode.my/perlis-kangar-jabatan-perhutanan-01660.html",
    "city": "Kangar",
    "state": "Perlis",
    "postcode": "01660"
  },
  {
    "office": "Jabatan Perikanan",
    "url": "https://postcode.my/perlis-kangar-jabatan-perikanan-01628.html",
    "city": "Kangar",
    "state": "Perlis",
    "postcode": "01628"
  },
  {
    "office": "Jabatan Perpaduan Negara",
    "url": "https://postcode.my/perlis-kangar-jabatan-perpaduan-negara-01517.html",
    "city": "Kangar",
    "state": "Perlis",
    "postcode": "01517"
  },
  {
    "office": "Jabatan Pertahanan Awam",
    "url": "https://postcode.my/perlis-kangar-jabatan-pertahanan-awam-01556.html",
    "city": "Kangar",
    "state": "Perlis",
    "postcode": "01556"
  },
  {
    "office": "Jabatan Pertanian",
    "url": "https://postcode.my/perlis-kangar-jabatan-pertanian-01632.html",
    "city": "Kangar",
    "state": "Perlis",
    "postcode": "01632"
  },
  {
    "office": "Jabatan Pertanian Bukit Temiang",
    "url": "https://postcode.my/perlis-kangar-jabatan-pertanian-bukit-temiang-02400.html",
    "city": "Kangar",
    "state": "Perlis",
    "postcode": "02400"
  },
  {
    "office": "Jabatan Sumber Manusia",
    "url": "https://postcode.my/perlis-kangar-jabatan-sumber-manusia-01532.html",
    "city": "Kangar",
    "state": "Perlis",
    "postcode": "01532"
  },
  {
    "office": "Jabatan Tanah & Galian",
    "url": "https://postcode.my/perlis-kangar-jabatan-tanah-galian-01576.html",
    "city": "Kangar",
    "state": "Perlis",
    "postcode": "01576"
  },
  {
    "office": "Jabatan Tenaga Rakyat",
    "url": "https://postcode.my/perlis-kangar-jabatan-tenaga-rakyat-01540.html",
    "city": "Kangar",
    "state": "Perlis",
    "postcode": "01540"
  },
  {
    "office": "Jabatan Ukur & Pemetaan",
    "url": "https://postcode.my/perlis-kangar-jabatan-ukur-pemetaan-01578.html",
    "city": "Kangar",
    "state": "Perlis",
    "postcode": "01578"
  },
  {
    "office": "Jalan Abi Tok Hashim",
    "url": "https://postcode.my/perlis-kangar-jalan-abi-tok-hashim-01000.html",
    "city": "Kangar",
    "state": "Perlis",
    "postcode": "01000"
  },
  {
    "office": "Jalan Alor Sena",
    "url": "https://postcode.my/perlis-kangar-jalan-alor-sena-01000.html",
    "city": "Kangar",
    "state": "Perlis",
    "postcode": "01000"
  },
  {
    "office": "Jalan Arau",
    "url": "https://postcode.my/perlis-kangar-jalan-arau-01000.html",
    "city": "Kangar",
    "state": "Perlis",
    "postcode": "01000"
  },
  {
    "office": "Jalan Asam Paya",
    "url": "https://postcode.my/perlis-kangar-jalan-asam-paya-02400.html",
    "city": "Kangar",
    "state": "Perlis",
    "postcode": "02400"
  },
  {
    "office": "Jalan Besar Kangar",
    "url": "https://postcode.my/perlis-kangar-jalan-besar-kangar-01000.html",
    "city": "Kangar",
    "state": "Perlis",
    "postcode": "01000"
  },
  {
    "office": "Jalan Beseri - Bukit Keteri",
    "url": "https://postcode.my/perlis-kangar-jalan-beseri-bukit-keteri-02400.html",
    "city": "Kangar",
    "state": "Perlis",
    "postcode": "02400"
  },
  {
    "office": "Jalan Bohor Guncar",
    "url": "https://postcode.my/perlis-kangar-jalan-bohor-guncar-01000.html",
    "city": "Kangar",
    "state": "Perlis",
    "postcode": "01000"
  },
  {
    "office": "Jalan Bukit Meranti",
    "url": "https://postcode.my/perlis-kangar-jalan-bukit-meranti-01000.html",
    "city": "Kangar",
    "state": "Perlis",
    "postcode": "01000"
  },
  {
    "office": "Jalan Home Guard",
    "url": "https://postcode.my/perlis-kangar-jalan-home-guard-01000.html",
    "city": "Kangar",
    "state": "Perlis",
    "postcode": "01000"
  },
  {
    "office": "Jalan Hospital",
    "url": "https://postcode.my/perlis-kangar-jalan-hospital-01000.html",
    "city": "Kangar",
    "state": "Perlis",
    "postcode": "01000"
  },
  {
    "office": "Jalan Jubli Perak",
    "url": "https://postcode.my/perlis-kangar-jalan-jubli-perak-01000.html",
    "city": "Kangar",
    "state": "Perlis",
    "postcode": "01000"
  },
  {
    "office": "Jalan Kaki Bukit (Batu 4 1/2)",
    "url": "https://postcode.my/perlis-kangar-jalan-kaki-bukit-batu-4-1-2-01000.html",
    "city": "Kangar",
    "state": "Perlis",
    "postcode": "01000"
  },
  {
    "office": "Jalan Kaki Bukit (Batu 4 3/4 - 6 1/4)",
    "url": "https://postcode.my/perlis-kangar-jalan-kaki-bukit-batu-4-3-4-6-1-4-02400.html",
    "city": "Kangar",
    "state": "Perlis",
    "postcode": "02400"
  },
  {
    "office": "Jalan Kampung Wan Abdullah",
    "url": "https://postcode.my/perlis-kangar-jalan-kampung-wan-abdullah-01000.html",
    "city": "Kangar",
    "state": "Perlis",
    "postcode": "01000"
  },
  {
    "office": "Jalan Kangar",
    "url": "https://postcode.my/perlis-kangar-jalan-kangar-01000.html",
    "city": "Kangar",
    "state": "Perlis",
    "postcode": "01000"
  },
  {
    "office": "Jalan Kurung Batang",
    "url": "https://postcode.my/perlis-kangar-jalan-kurung-batang-01000.html",
    "city": "Kangar",
    "state": "Perlis",
    "postcode": "01000"
  },
  {
    "office": "Jalan Masjid Lama",
    "url": "https://postcode.my/perlis-kangar-jalan-masjid-lama-01000.html",
    "city": "Kangar",
    "state": "Perlis",
    "postcode": "01000"
  },
  {
    "office": "Jalan Mata Ayer (Km 1.6 - 6)",
    "url": "https://postcode.my/perlis-kangar-jalan-mata-ayer-km-1-6-6-02500.html",
    "city": "Kangar",
    "state": "Perlis",
    "postcode": "02500"
  },
  {
    "office": "Jalan Medan Kangar",
    "url": "https://postcode.my/perlis-kangar-jalan-medan-kangar-01000.html",
    "city": "Kangar",
    "state": "Perlis",
    "postcode": "01000"
  },
  {
    "office": "Jalan Padang Bohor",
    "url": "https://postcode.my/perlis-kangar-jalan-padang-bohor-01000.html",
    "city": "Kangar",
    "state": "Perlis",
    "postcode": "01000"
  },
  {
    "office": "Jalan Padang Melangit",
    "url": "https://postcode.my/perlis-kangar-jalan-padang-melangit-02400.html",
    "city": "Kangar",
    "state": "Perlis",
    "postcode": "02400"
  },
  {
    "office": "Jalan Panglima",
    "url": "https://postcode.my/perlis-kangar-jalan-panglima-01000.html",
    "city": "Kangar",
    "state": "Perlis",
    "postcode": "01000"
  },
  {
    "office": "Jalan Pegawai",
    "url": "https://postcode.my/perlis-kangar-jalan-pegawai-01000.html",
    "city": "Kangar",
    "state": "Perlis",
    "postcode": "01000"
  },
  {
    "office": "Jalan Penjara",
    "url": "https://postcode.my/perlis-kangar-jalan-penjara-01000.html",
    "city": "Kangar",
    "state": "Perlis",
    "postcode": "01000"
  },
  {
    "office": "Jalan Raja Muda",
    "url": "https://postcode.my/perlis-kangar-jalan-raja-muda-01000.html",
    "city": "Kangar",
    "state": "Perlis",
    "postcode": "01000"
  },
  {
    "office": "Jalan Raja Syed Alwi",
    "url": "https://postcode.my/perlis-kangar-jalan-raja-syed-alwi-01000.html",
    "city": "Kangar",
    "state": "Perlis",
    "postcode": "01000"
  },
  {
    "office": "Jalan Raja Syed Saffi",
    "url": "https://postcode.my/perlis-kangar-jalan-raja-syed-saffi-01000.html",
    "city": "Kangar",
    "state": "Perlis",
    "postcode": "01000"
  },
  {
    "office": "Jalan Santan (Batu 3 3/4 - 5)",
    "url": "https://postcode.my/perlis-kangar-jalan-santan-batu-3-3-4-5-02400.html",
    "city": "Kangar",
    "state": "Perlis",
    "postcode": "02400"
  },
  {
    "office": "Jalan Santan (Km 5)",
    "url": "https://postcode.my/perlis-kangar-jalan-santan-km-5-01000.html",
    "city": "Kangar",
    "state": "Perlis",
    "postcode": "01000"
  },
  {
    "office": "Jalan Seruling",
    "url": "https://postcode.my/perlis-kangar-jalan-seruling-01000.html",
    "city": "Kangar",
    "state": "Perlis",
    "postcode": "01000"
  },
  {
    "office": "Jalan Syed Omar",
    "url": "https://postcode.my/perlis-kangar-jalan-syed-omar-01000.html",
    "city": "Kangar",
    "state": "Perlis",
    "postcode": "01000"
  },
  {
    "office": "Jalan Taman Bunga Padi",
    "url": "https://postcode.my/perlis-kangar-jalan-taman-bunga-padi-01000.html",
    "city": "Kangar",
    "state": "Perlis",
    "postcode": "01000"
  },
  {
    "office": "Jalan Teluk Kacang",
    "url": "https://postcode.my/perlis-kangar-jalan-teluk-kacang-01000.html",
    "city": "Kangar",
    "state": "Perlis",
    "postcode": "01000"
  },
  {
    "office": "Jalan Tok Kandang",
    "url": "https://postcode.my/perlis-kangar-jalan-tok-kandang-01000.html",
    "city": "Kangar",
    "state": "Perlis",
    "postcode": "01000"
  },
  {
    "office": "Jalan Tun Razak",
    "url": "https://postcode.my/perlis-kangar-jalan-tun-razak-01000.html",
    "city": "Kangar",
    "state": "Perlis",
    "postcode": "01000"
  },
  {
    "office": "Jejawi",
    "url": "https://postcode.my/perlis-kangar-jejawi-01000.html",
    "city": "Kangar",
    "state": "Perlis",
    "postcode": "01000"
  },
  {
    "office": "JKR Bekalan Air Tassoh",
    "url": "https://postcode.my/perlis-kangar-jkr-bekalan-air-tassoh-02400.html",
    "city": "Kangar",
    "state": "Perlis",
    "postcode": "02400"
  },
  {
    "office": "Kampung Abi Batas Paip",
    "url": "https://postcode.my/perlis-kangar-kampung-abi-batas-paip-01000.html",
    "city": "Kangar",
    "state": "Perlis",
    "postcode": "01000"
  },
  {
    "office": "Kampung Abi Padang Machang",
    "url": "https://postcode.my/perlis-kangar-kampung-abi-padang-machang-01000.html",
    "city": "Kangar",
    "state": "Perlis",
    "postcode": "01000"
  },
  {
    "office": "Kampung Abi Pokok Asam",
    "url": "https://postcode.my/perlis-kangar-kampung-abi-pokok-asam-01000.html",
    "city": "Kangar",
    "state": "Perlis",
    "postcode": "01000"
  },
  {
    "office": "Kampung Abi Tok Hashim",
    "url": "https://postcode.my/perlis-kangar-kampung-abi-tok-hashim-01000.html",
    "city": "Kangar",
    "state": "Perlis",
    "postcode": "01000"
  },
  {
    "office": "Kampung Alor",
    "url": "https://postcode.my/perlis-kangar-kampung-alor-01000.html",
    "city": "Kangar",
    "state": "Perlis",
    "postcode": "01000"
  },
  {
    "office": "Kampung Alor Ara",
    "url": "https://postcode.my/perlis-kangar-kampung-alor-ara-01000.html",
    "city": "Kangar",
    "state": "Perlis",
    "postcode": "01000"
  },
  {
    "office": "Kampung Alor Dalam",
    "url": "https://postcode.my/perlis-kangar-kampung-alor-dalam-01000.html",
    "city": "Kangar",
    "state": "Perlis",
    "postcode": "01000"
  },
  {
    "office": "Kampung Alor Kabong",
    "url": "https://postcode.my/perlis-kangar-kampung-alor-kabong-01000.html",
    "city": "Kangar",
    "state": "Perlis",
    "postcode": "01000"
  },
  {
    "office": "Kampung Alor Kangar",
    "url": "https://postcode.my/perlis-kangar-kampung-alor-kangar-02400.html",
    "city": "Kangar",
    "state": "Perlis",
    "postcode": "02400"
  },
  {
    "office": "Kampung Alor Lanchang",
    "url": "https://postcode.my/perlis-kangar-kampung-alor-lanchang-01000.html",
    "city": "Kangar",
    "state": "Perlis",
    "postcode": "01000"
  },
  {
    "office": "Kampung Alor Marus",
    "url": "https://postcode.my/perlis-kangar-kampung-alor-marus-01000.html",
    "city": "Kangar",
    "state": "Perlis",
    "postcode": "01000"
  },
  {
    "office": "Kampung Alor Pulai",
    "url": "https://postcode.my/perlis-kangar-kampung-alor-pulai-01000.html",
    "city": "Kangar",
    "state": "Perlis",
    "postcode": "01000"
  },
  {
    "office": "Kampung Alor Redeh",
    "url": "https://postcode.my/perlis-kangar-kampung-alor-redeh-01000.html",
    "city": "Kangar",
    "state": "Perlis",
    "postcode": "01000"
  },
  {
    "office": "Kampung Alor Sena",
    "url": "https://postcode.my/perlis-kangar-kampung-alor-sena-01000.html",
    "city": "Kangar",
    "state": "Perlis",
    "postcode": "01000"
  },
  {
    "office": "Kampung Alor Tampang",
    "url": "https://postcode.my/perlis-kangar-kampung-alor-tampang-02400.html",
    "city": "Kangar",
    "state": "Perlis",
    "postcode": "02400"
  },
  {
    "office": "Kampung Aman",
    "url": "https://postcode.my/perlis-kangar-kampung-aman-01000.html",
    "city": "Kangar",
    "state": "Perlis",
    "postcode": "01000"
  },
  {
    "office": "Kampung Asam 6",
    "url": "https://postcode.my/perlis-kangar-kampung-asam-6-01000.html",
    "city": "Kangar",
    "state": "Perlis",
    "postcode": "01000"
  },
  {
    "office": "Kampung Aur",
    "url": "https://postcode.my/perlis-kangar-kampung-aur-01000.html",
    "city": "Kangar",
    "state": "Perlis",
    "postcode": "01000"
  },
  {
    "office": "Kampung Bakau",
    "url": "https://postcode.my/perlis-kangar-kampung-bakau-01000.html",
    "city": "Kangar",
    "state": "Perlis",
    "postcode": "01000"
  },
  {
    "office": "Kampung Bakong (Jejawi)",
    "url": "https://postcode.my/perlis-kangar-kampung-bakong-jejawi-01000.html",
    "city": "Kangar",
    "state": "Perlis",
    "postcode": "01000"
  },
  {
    "office": "Kampung Balai Baru",
    "url": "https://postcode.my/perlis-kangar-kampung-balai-baru-02400.html",
    "city": "Kangar",
    "state": "Perlis",
    "postcode": "02400"
  },
  {
    "office": "Kampung Balik Bukit",
    "url": "https://postcode.my/perlis-kangar-kampung-balik-bukit-02500.html",
    "city": "Kangar",
    "state": "Perlis",
    "postcode": "02500"
  },
  {
    "office": "Kampung Balik Bukit Selatan",
    "url": "https://postcode.my/perlis-kangar-kampung-balik-bukit-selatan-02500.html",
    "city": "Kangar",
    "state": "Perlis",
    "postcode": "02500"
  },
  {
    "office": "Kampung Balik Guar",
    "url": "https://postcode.my/perlis-kangar-kampung-balik-guar-02500.html",
    "city": "Kangar",
    "state": "Perlis",
    "postcode": "02500"
  },
  {
    "office": "Kampung Banggol Sena",
    "url": "https://postcode.my/perlis-kangar-kampung-banggol-sena-02500.html",
    "city": "Kangar",
    "state": "Perlis",
    "postcode": "02500"
  },
  {
    "office": "Kampung Baroh",
    "url": "https://postcode.my/perlis-kangar-kampung-baroh-01000.html",
    "city": "Kangar",
    "state": "Perlis",
    "postcode": "01000"
  },
  {
    "office": "Kampung Baru",
    "url": "https://postcode.my/perlis-kangar-kampung-baru-01000.html",
    "city": "Kangar",
    "state": "Perlis",
    "postcode": "01000"
  },
  {
    "office": "Kampung Baru Ngulang",
    "url": "https://postcode.my/perlis-kangar-kampung-baru-ngulang-02400.html",
    "city": "Kangar",
    "state": "Perlis",
    "postcode": "02400"
  },
  {
    "office": "Kampung Baru Pangas",
    "url": "https://postcode.my/perlis-kangar-kampung-baru-pangas-02400.html",
    "city": "Kangar",
    "state": "Perlis",
    "postcode": "02400"
  },
  {
    "office": "Kampung Baru Santan",
    "url": "https://postcode.my/perlis-kangar-kampung-baru-santan-01000.html",
    "city": "Kangar",
    "state": "Perlis",
    "postcode": "01000"
  },
  {
    "office": "Kampung Batu 3.5 (Jalan Kaki Bukit)",
    "url": "https://postcode.my/perlis-kangar-kampung-batu-3-5-jalan-kaki-bukit-01000.html",
    "city": "Kangar",
    "state": "Perlis",
    "postcode": "01000"
  },
  {
    "office": "Kampung Batu Bertangkup",
    "url": "https://postcode.my/perlis-kangar-kampung-batu-bertangkup-02400.html",
    "city": "Kangar",
    "state": "Perlis",
    "postcode": "02400"
  },
  {
    "office": "Kampung Batu Hampar (Beseri)",
    "url": "https://postcode.my/perlis-kangar-kampung-batu-hampar-beseri-02400.html",
    "city": "Kangar",
    "state": "Perlis",
    "postcode": "02400"
  },
  {
    "office": "Kampung Batu Pahat",
    "url": "https://postcode.my/perlis-kangar-kampung-batu-pahat-01000.html",
    "city": "Kangar",
    "state": "Perlis",
    "postcode": "01000"
  },
  {
    "office": "Kampung Bawah Bukit",
    "url": "https://postcode.my/perlis-kangar-kampung-bawah-bukit-02500.html",
    "city": "Kangar",
    "state": "Perlis",
    "postcode": "02500"
  },
  {
    "office": "Kampung Behor Cicar",
    "url": "https://postcode.my/perlis-kangar-kampung-behor-cicar-01000.html",
    "city": "Kangar",
    "state": "Perlis",
    "postcode": "01000"
  },
  {
    "office": "Kampung Behor Empiang",
    "url": "https://postcode.my/perlis-kangar-kampung-behor-empiang-01000.html",
    "city": "Kangar",
    "state": "Perlis",
    "postcode": "01000"
  },
  {
    "office": "Kampung Behor Inai",
    "url": "https://postcode.my/perlis-kangar-kampung-behor-inai-01000.html",
    "city": "Kangar",
    "state": "Perlis",
    "postcode": "01000"
  },
  {
    "office": "Kampung Behor Janggus",
    "url": "https://postcode.my/perlis-kangar-kampung-behor-janggus-01000.html",
    "city": "Kangar",
    "state": "Perlis",
    "postcode": "01000"
  },
  {
    "office": "Kampung Behor Kebal",
    "url": "https://postcode.my/perlis-kangar-kampung-behor-kebal-01000.html",
    "city": "Kangar",
    "state": "Perlis",
    "postcode": "01000"
  },
  {
    "office": "Kampung Behor Kulit Kerang",
    "url": "https://postcode.my/perlis-kangar-kampung-behor-kulit-kerang-02400.html",
    "city": "Kangar",
    "state": "Perlis",
    "postcode": "02400"
  },
  {
    "office": "Kampung Behor Madi",
    "url": "https://postcode.my/perlis-kangar-kampung-behor-madi-02400.html",
    "city": "Kangar",
    "state": "Perlis",
    "postcode": "02400"
  },
  {
    "office": "Kampung Behor Pulai",
    "url": "https://postcode.my/perlis-kangar-kampung-behor-pulai-01000.html",
    "city": "Kangar",
    "state": "Perlis",
    "postcode": "01000"
  },
  {
    "office": "Kampung Behor Temak",
    "url": "https://postcode.my/perlis-kangar-kampung-behor-temak-01000.html",
    "city": "Kangar",
    "state": "Perlis",
    "postcode": "01000"
  },
  {
    "office": "Kampung Belangga Pudak",
    "url": "https://postcode.my/perlis-kangar-kampung-belangga-pudak-01000.html",
    "city": "Kangar",
    "state": "Perlis",
    "postcode": "01000"
  },
  {
    "office": "Kampung Belat Batu Beseri",
    "url": "https://postcode.my/perlis-kangar-kampung-belat-batu-beseri-02400.html",
    "city": "Kangar",
    "state": "Perlis",
    "postcode": "02400"
  },
  {
    "office": "Kampung Belat Santan",
    "url": "https://postcode.my/perlis-kangar-kampung-belat-santan-01000.html",
    "city": "Kangar",
    "state": "Perlis",
    "postcode": "01000"
  },
  {
    "office": "Kampung Belukar (Kangar)",
    "url": "https://postcode.my/perlis-kangar-kampung-belukar-kangar-01000.html",
    "city": "Kangar",
    "state": "Perlis",
    "postcode": "01000"
  },
  {
    "office": "Kampung Belukar (Mata Ayer)",
    "url": "https://postcode.my/perlis-kangar-kampung-belukar-mata-ayer-02500.html",
    "city": "Kangar",
    "state": "Perlis",
    "postcode": "02500"
  },
  {
    "office": "Kampung Belukar Lengga",
    "url": "https://postcode.my/perlis-kangar-kampung-belukar-lengga-02400.html",
    "city": "Kangar",
    "state": "Perlis",
    "postcode": "02400"
  },
  {
    "office": "Kampung Belukar Lengga",
    "url": "https://postcode.my/perlis-kangar-kampung-belukar-lengga-02450.html",
    "city": "Kangar",
    "state": "Perlis",
    "postcode": "02450"
  },
  {
    "office": "Kampung Bendang Baru",
    "url": "https://postcode.my/perlis-kangar-kampung-bendang-baru-01000.html",
    "city": "Kangar",
    "state": "Perlis",
    "postcode": "01000"
  },
  {
    "office": "Kampung Beseri Dalam",
    "url": "https://postcode.my/perlis-kangar-kampung-beseri-dalam-02400.html",
    "city": "Kangar",
    "state": "Perlis",
    "postcode": "02400"
  },
  {
    "office": "Kampung Beseri Jaya",
    "url": "https://postcode.my/perlis-kangar-kampung-beseri-jaya-02400.html",
    "city": "Kangar",
    "state": "Perlis",
    "postcode": "02400"
  },
  {
    "office": "Kampung Bilal Uduh",
    "url": "https://postcode.my/perlis-kangar-kampung-bilal-uduh-02400.html",
    "city": "Kangar",
    "state": "Perlis",
    "postcode": "02400"
  },
  {
    "office": "Kampung Binjal",
    "url": "https://postcode.my/perlis-kangar-kampung-binjal-01000.html",
    "city": "Kangar",
    "state": "Perlis",
    "postcode": "01000"
  },
  {
    "office": "Kampung Bintong",
    "url": "https://postcode.my/perlis-kangar-kampung-bintong-01000.html",
    "city": "Kangar",
    "state": "Perlis",
    "postcode": "01000"
  },
  {
    "office": "Kampung Bohor Chichar",
    "url": "https://postcode.my/perlis-kangar-kampung-bohor-chichar-01000.html",
    "city": "Kangar",
    "state": "Perlis",
    "postcode": "01000"
  },
  {
    "office": "Kampung Bohor Gandil",
    "url": "https://postcode.my/perlis-kangar-kampung-bohor-gandil-01000.html",
    "city": "Kangar",
    "state": "Perlis",
    "postcode": "01000"
  },
  {
    "office": "Kampung Bohor Gelam",
    "url": "https://postcode.my/perlis-kangar-kampung-bohor-gelam-01000.html",
    "city": "Kangar",
    "state": "Perlis",
    "postcode": "01000"
  },
  {
    "office": "Kampung Bohor Goncar",
    "url": "https://postcode.my/perlis-kangar-kampung-bohor-goncar-01000.html",
    "city": "Kangar",
    "state": "Perlis",
    "postcode": "01000"
  },
  {
    "office": "Kampung Bohor Inai",
    "url": "https://postcode.my/perlis-kangar-kampung-bohor-inai-01000.html",
    "city": "Kangar",
    "state": "Perlis",
    "postcode": "01000"
  },
  {
    "office": "Kampung Bohor Luar",
    "url": "https://postcode.my/perlis-kangar-kampung-bohor-luar-02400.html",
    "city": "Kangar",
    "state": "Perlis",
    "postcode": "02400"
  },
  {
    "office": "Kampung Bohor Temak",
    "url": "https://postcode.my/perlis-kangar-kampung-bohor-temak-01000.html",
    "city": "Kangar",
    "state": "Perlis",
    "postcode": "01000"
  },
  {
    "office": "Kampung Bongkok",
    "url": "https://postcode.my/perlis-kangar-kampung-bongkok-02400.html",
    "city": "Kangar",
    "state": "Perlis",
    "postcode": "02400"
  },
  {
    "office": "Kampung Bukit Besi Hangit",
    "url": "https://postcode.my/perlis-kangar-kampung-bukit-besi-hangit-01000.html",
    "city": "Kangar",
    "state": "Perlis",
    "postcode": "01000"
  },
  {
    "office": "Kampung Bukit Chuping",
    "url": "https://postcode.my/perlis-kangar-kampung-bukit-chuping-02500.html",
    "city": "Kangar",
    "state": "Perlis",
    "postcode": "02500"
  },
  {
    "office": "Kampung Bukit Jernih",
    "url": "https://postcode.my/perlis-kangar-kampung-bukit-jernih-02400.html",
    "city": "Kangar",
    "state": "Perlis",
    "postcode": "02400"
  },
  {
    "office": "Kampung Bukit Jernih",
    "url": "https://postcode.my/perlis-kangar-kampung-bukit-jernih-02450.html",
    "city": "Kangar",
    "state": "Perlis",
    "postcode": "02450"
  },
  {
    "office": "Kampung Bukit Kecil",
    "url": "https://postcode.my/perlis-kangar-kampung-bukit-kecil-01000.html",
    "city": "Kangar",
    "state": "Perlis",
    "postcode": "01000"
  },
  {
    "office": "Kampung Bukit Kedak",
    "url": "https://postcode.my/perlis-kangar-kampung-bukit-kedak-02400.html",
    "city": "Kangar",
    "state": "Perlis",
    "postcode": "02400"
  },
  {
    "office": "Kampung Bukit Manek Barat",
    "url": "https://postcode.my/perlis-kangar-kampung-bukit-manek-barat-02400.html",
    "city": "Kangar",
    "state": "Perlis",
    "postcode": "02400"
  },
  {
    "office": "Kampung Bukit Merah",
    "url": "https://postcode.my/perlis-kangar-kampung-bukit-merah-02400.html",
    "city": "Kangar",
    "state": "Perlis",
    "postcode": "02400"
  },
  {
    "office": "Kampung Bukit Merah Hilir",
    "url": "https://postcode.my/perlis-kangar-kampung-bukit-merah-hilir-02400.html",
    "city": "Kangar",
    "state": "Perlis",
    "postcode": "02400"
  },
  {
    "office": "Kampung Bukit Merah Hulu",
    "url": "https://postcode.my/perlis-kangar-kampung-bukit-merah-hulu-02400.html",
    "city": "Kangar",
    "state": "Perlis",
    "postcode": "02400"
  },
  {
    "office": "Kampung Bukit Temiang",
    "url": "https://postcode.my/perlis-kangar-kampung-bukit-temiang-02400.html",
    "city": "Kangar",
    "state": "Perlis",
    "postcode": "02400"
  },
  {
    "office": "Kampung Bunga Pudak",
    "url": "https://postcode.my/perlis-kangar-kampung-bunga-pudak-01000.html",
    "city": "Kangar",
    "state": "Perlis",
    "postcode": "01000"
  },
  {
    "office": "Kampung Changkat Lada",
    "url": "https://postcode.my/perlis-kangar-kampung-changkat-lada-02500.html",
    "city": "Kangar",
    "state": "Perlis",
    "postcode": "02500"
  },
  {
    "office": "Kampung Che gu Ali",
    "url": "https://postcode.my/perlis-kangar-kampung-che-gu-ali-02500.html",
    "city": "Kangar",
    "state": "Perlis",
    "postcode": "02500"
  },
  {
    "office": "Kampung Chelong",
    "url": "https://postcode.my/perlis-kangar-kampung-chelong-02500.html",
    "city": "Kangar",
    "state": "Perlis",
    "postcode": "02500"
  },
  {
    "office": "Kampung Chichak Terbelit",
    "url": "https://postcode.my/perlis-kangar-kampung-chichak-terbelit-02400.html",
    "city": "Kangar",
    "state": "Perlis",
    "postcode": "02400"
  },
  {
    "office": "Kampung Chuping",
    "url": "https://postcode.my/perlis-kangar-kampung-chuping-02500.html",
    "city": "Kangar",
    "state": "Perlis",
    "postcode": "02500"
  },
  {
    "office": "Kampung Dagang",
    "url": "https://postcode.my/perlis-kangar-kampung-dagang-01000.html",
    "city": "Kangar",
    "state": "Perlis",
    "postcode": "01000"
  },
  {
    "office": "Kampung Darat",
    "url": "https://postcode.my/perlis-kangar-kampung-darat-02400.html",
    "city": "Kangar",
    "state": "Perlis",
    "postcode": "02400"
  },
  {
    "office": "Kampung Darat Selatan",
    "url": "https://postcode.my/perlis-kangar-kampung-darat-selatan-02400.html",
    "city": "Kangar",
    "state": "Perlis",
    "postcode": "02400"
  },
  {
    "office": "Kampung Dasri",
    "url": "https://postcode.my/perlis-kangar-kampung-dasri-01000.html",
    "city": "Kangar",
    "state": "Perlis",
    "postcode": "01000"
  },
  {
    "office": "Kampung Datuk",
    "url": "https://postcode.my/perlis-kangar-kampung-datuk-01000.html",
    "city": "Kangar",
    "state": "Perlis",
    "postcode": "01000"
  },
  {
    "office": "Kampung Datuk Sheikh Ahmad",
    "url": "https://postcode.my/perlis-kangar-kampung-datuk-sheikh-ahmad-02400.html",
    "city": "Kangar",
    "state": "Perlis",
    "postcode": "02400"
  },
  {
    "office": "Kampung Gial",
    "url": "https://postcode.my/perlis-kangar-kampung-gial-02500.html",
    "city": "Kangar",
    "state": "Perlis",
    "postcode": "02500"
  },
  {
    "office": "Kampung Gial Tengah",
    "url": "https://postcode.my/perlis-kangar-kampung-gial-tengah-02500.html",
    "city": "Kangar",
    "state": "Perlis",
    "postcode": "02500"
  },
  {
    "office": "Kampung Guar Halban",
    "url": "https://postcode.my/perlis-kangar-kampung-guar-halban-02500.html",
    "city": "Kangar",
    "state": "Perlis",
    "postcode": "02500"
  },
  {
    "office": "Kampung Guar Jentek",
    "url": "https://postcode.my/perlis-kangar-kampung-guar-jentek-02400.html",
    "city": "Kangar",
    "state": "Perlis",
    "postcode": "02400"
  },
  {
    "office": "Kampung Guar Medan Gatal",
    "url": "https://postcode.my/perlis-kangar-kampung-guar-medan-gatal-02400.html",
    "city": "Kangar",
    "state": "Perlis",
    "postcode": "02400"
  },
  {
    "office": "Kampung Guar Musang",
    "url": "https://postcode.my/perlis-kangar-kampung-guar-musang-02500.html",
    "city": "Kangar",
    "state": "Perlis",
    "postcode": "02500"
  },
  {
    "office": "Kampung Guar Nangka",
    "url": "https://postcode.my/perlis-kangar-kampung-guar-nangka-02500.html",
    "city": "Kangar",
    "state": "Perlis",
    "postcode": "02500"
  },
  {
    "office": "Kampung Guar Sanai",
    "url": "https://postcode.my/perlis-kangar-kampung-guar-sanai-02400.html",
    "city": "Kangar",
    "state": "Perlis",
    "postcode": "02400"
  },
  {
    "office": "Kampung Guar Syed Alwi",
    "url": "https://postcode.my/perlis-kangar-kampung-guar-syed-alwi-01000.html",
    "city": "Kangar",
    "state": "Perlis",
    "postcode": "01000"
  },
  {
    "office": "Kampung Guar Ujung Batu",
    "url": "https://postcode.my/perlis-kangar-kampung-guar-ujung-batu-01000.html",
    "city": "Kangar",
    "state": "Perlis",
    "postcode": "01000"
  },
  {
    "office": "Kampung Gunong",
    "url": "https://postcode.my/perlis-kangar-kampung-gunong-01000.html",
    "city": "Kangar",
    "state": "Perlis",
    "postcode": "01000"
  },
  {
    "office": "Kampung Guru",
    "url": "https://postcode.my/perlis-kangar-kampung-guru-01000.html",
    "city": "Kangar",
    "state": "Perlis",
    "postcode": "01000"
  },
  {
    "office": "Kampung Haji Daud",
    "url": "https://postcode.my/perlis-kangar-kampung-haji-daud-01000.html",
    "city": "Kangar",
    "state": "Perlis",
    "postcode": "01000"
  },
  {
    "office": "Kampung Hutan Buluh",
    "url": "https://postcode.my/perlis-kangar-kampung-hutan-buluh-01000.html",
    "city": "Kangar",
    "state": "Perlis",
    "postcode": "01000"
  },
  {
    "office": "Kampung Hutan Lembah",
    "url": "https://postcode.my/perlis-kangar-kampung-hutan-lembah-02500.html",
    "city": "Kangar",
    "state": "Perlis",
    "postcode": "02500"
  },
  {
    "office": "Kampung Hutan Melintang",
    "url": "https://postcode.my/perlis-kangar-kampung-hutan-melintang-01000.html",
    "city": "Kangar",
    "state": "Perlis",
    "postcode": "01000"
  },
  {
    "office": "Kampung Hutan Temin",
    "url": "https://postcode.my/perlis-kangar-kampung-hutan-temin-02500.html",
    "city": "Kangar",
    "state": "Perlis",
    "postcode": "02500"
  },
  {
    "office": "Kampung Jarak",
    "url": "https://postcode.my/perlis-kangar-kampung-jarak-01000.html",
    "city": "Kangar",
    "state": "Perlis",
    "postcode": "01000"
  },
  {
    "office": "Kampung Jejawi Dalam",
    "url": "https://postcode.my/perlis-kangar-kampung-jejawi-dalam-01000.html",
    "city": "Kangar",
    "state": "Perlis",
    "postcode": "01000"
  },
  {
    "office": "Kampung Jejawi Sematang",
    "url": "https://postcode.my/perlis-kangar-kampung-jejawi-sematang-01000.html",
    "city": "Kangar",
    "state": "Perlis",
    "postcode": "01000"
  },
  {
    "office": "Kampung Kechor",
    "url": "https://postcode.my/perlis-kangar-kampung-kechor-01000.html",
    "city": "Kangar",
    "state": "Perlis",
    "postcode": "01000"
  },
  {
    "office": "Kampung Kelang Beseri",
    "url": "https://postcode.my/perlis-kangar-kampung-kelang-beseri-02400.html",
    "city": "Kangar",
    "state": "Perlis",
    "postcode": "02400"
  },
  {
    "office": "Kampung Kepala Batas Dato Kaya",
    "url": "https://postcode.my/perlis-kangar-kampung-kepala-batas-dato-kaya-02450.html",
    "city": "Kangar",
    "state": "Perlis",
    "postcode": "02450"
  },
  {
    "office": "Kampung Kepala Batas Dato Kayaman",
    "url": "https://postcode.my/perlis-kangar-kampung-kepala-batas-dato-kayaman-02400.html",
    "city": "Kangar",
    "state": "Perlis",
    "postcode": "02400"
  },
  {
    "office": "Kampung Keranji",
    "url": "https://postcode.my/perlis-kangar-kampung-keranji-01000.html",
    "city": "Kangar",
    "state": "Perlis",
    "postcode": "01000"
  },
  {
    "office": "Kampung Kerisik Hilir",
    "url": "https://postcode.my/perlis-kangar-kampung-kerisik-hilir-02500.html",
    "city": "Kangar",
    "state": "Perlis",
    "postcode": "02500"
  },
  {
    "office": "Kampung Kersek (Kangar)",
    "url": "https://postcode.my/perlis-kangar-kampung-kersek-kangar-02500.html",
    "city": "Kangar",
    "state": "Perlis",
    "postcode": "02500"
  },
  {
    "office": "Kampung Kersek (Mata Ayer)",
    "url": "https://postcode.my/perlis-kangar-kampung-kersek-mata-ayer-02500.html",
    "city": "Kangar",
    "state": "Perlis",
    "postcode": "02500"
  },
  {
    "office": "Kampung Kota",
    "url": "https://postcode.my/perlis-kangar-kampung-kota-01000.html",
    "city": "Kangar",
    "state": "Perlis",
    "postcode": "01000"
  },
  {
    "office": "Kampung Kota Keran",
    "url": "https://postcode.my/perlis-kangar-kampung-kota-keran-01000.html",
    "city": "Kangar",
    "state": "Perlis",
    "postcode": "01000"
  },
  {
    "office": "Kampung Kota Ulu",
    "url": "https://postcode.my/perlis-kangar-kampung-kota-ulu-01000.html",
    "city": "Kangar",
    "state": "Perlis",
    "postcode": "01000"
  },
  {
    "office": "Kampung Kubang Arang",
    "url": "https://postcode.my/perlis-kangar-kampung-kubang-arang-01000.html",
    "city": "Kangar",
    "state": "Perlis",
    "postcode": "01000"
  },
  {
    "office": "Kampung Kubang Badak",
    "url": "https://postcode.my/perlis-kangar-kampung-kubang-badak-01000.html",
    "city": "Kangar",
    "state": "Perlis",
    "postcode": "01000"
  },
  {
    "office": "Kampung Kubang Cekuang",
    "url": "https://postcode.my/perlis-kangar-kampung-kubang-cekuang-01000.html",
    "city": "Kangar",
    "state": "Perlis",
    "postcode": "01000"
  },
  {
    "office": "Kampung Kubang Gajah",
    "url": "https://postcode.my/perlis-kangar-kampung-kubang-gajah-01000.html",
    "city": "Kangar",
    "state": "Perlis",
    "postcode": "01000"
  },
  {
    "office": "Kampung Kubang Jeliti",
    "url": "https://postcode.my/perlis-kangar-kampung-kubang-jeliti-02400.html",
    "city": "Kangar",
    "state": "Perlis",
    "postcode": "02400"
  },
  {
    "office": "Kampung Kubang Peron",
    "url": "https://postcode.my/perlis-kangar-kampung-kubang-peron-02500.html",
    "city": "Kangar",
    "state": "Perlis",
    "postcode": "02500"
  },
  {
    "office": "Kampung Kubang Tiga",
    "url": "https://postcode.my/perlis-kangar-kampung-kubang-tiga-02400.html",
    "city": "Kangar",
    "state": "Perlis",
    "postcode": "02400"
  },
  {
    "office": "Kampung Kubang Tiga",
    "url": "https://postcode.my/perlis-kangar-kampung-kubang-tiga-02450.html",
    "city": "Kangar",
    "state": "Perlis",
    "postcode": "02450"
  },
  {
    "office": "Kampung Kurung Batang",
    "url": "https://postcode.my/perlis-kangar-kampung-kurung-batang-01000.html",
    "city": "Kangar",
    "state": "Perlis",
    "postcode": "01000"
  },
  {
    "office": "Kampung Lembah Biak",
    "url": "https://postcode.my/perlis-kangar-kampung-lembah-biak-02400.html",
    "city": "Kangar",
    "state": "Perlis",
    "postcode": "02400"
  },
  {
    "office": "Kampung Lin",
    "url": "https://postcode.my/perlis-kangar-kampung-lin-01000.html",
    "city": "Kangar",
    "state": "Perlis",
    "postcode": "01000"
  },
  {
    "office": "Kampung Lubok Batu",
    "url": "https://postcode.my/perlis-kangar-kampung-lubok-batu-02400.html",
    "city": "Kangar",
    "state": "Perlis",
    "postcode": "02400"
  },
  {
    "office": "Kampung Lubok Gajah",
    "url": "https://postcode.my/perlis-kangar-kampung-lubok-gajah-02400.html",
    "city": "Kangar",
    "state": "Perlis",
    "postcode": "02400"
  },
  {
    "office": "Kampung Lubok Hitam Manis",
    "url": "https://postcode.my/perlis-kangar-kampung-lubok-hitam-manis-02400.html",
    "city": "Kangar",
    "state": "Perlis",
    "postcode": "02400"
  },
  {
    "office": "Kampung Lubuk Machang",
    "url": "https://postcode.my/perlis-kangar-kampung-lubuk-machang-02400.html",
    "city": "Kangar",
    "state": "Perlis",
    "postcode": "02400"
  },
  {
    "office": "Kampung Masjid (Beseri)",
    "url": "https://postcode.my/perlis-kangar-kampung-masjid-beseri-02450.html",
    "city": "Kangar",
    "state": "Perlis",
    "postcode": "02450"
  },
  {
    "office": "Kampung Masjid (Kangar)",
    "url": "https://postcode.my/perlis-kangar-kampung-masjid-kangar-01000.html",
    "city": "Kangar",
    "state": "Perlis",
    "postcode": "01000"
  },
  {
    "office": "Kampung Masjid Beseri",
    "url": "https://postcode.my/perlis-kangar-kampung-masjid-beseri-02400.html",
    "city": "Kangar",
    "state": "Perlis",
    "postcode": "02400"
  },
  {
    "office": "Kampung Mempelas",
    "url": "https://postcode.my/perlis-kangar-kampung-mempelas-02400.html",
    "city": "Kangar",
    "state": "Perlis",
    "postcode": "02400"
  },
  {
    "office": "Kampung Mengkuang Layar",
    "url": "https://postcode.my/perlis-kangar-kampung-mengkuang-layar-01000.html",
    "city": "Kangar",
    "state": "Perlis",
    "postcode": "01000"
  },
  {
    "office": "Kampung Ngulang",
    "url": "https://postcode.my/perlis-kangar-kampung-ngulang-02400.html",
    "city": "Kangar",
    "state": "Perlis",
    "postcode": "02400"
  },
  {
    "office": "Kampung Nissam",
    "url": "https://postcode.my/perlis-kangar-kampung-nissam-01000.html",
    "city": "Kangar",
    "state": "Perlis",
    "postcode": "01000"
  },
  {
    "office": "Kampung Nyak Adam",
    "url": "https://postcode.my/perlis-kangar-kampung-nyak-adam-01000.html",
    "city": "Kangar",
    "state": "Perlis",
    "postcode": "01000"
  },
  {
    "office": "Kampung Oran",
    "url": "https://postcode.my/perlis-kangar-kampung-oran-02500.html",
    "city": "Kangar",
    "state": "Perlis",
    "postcode": "02500"
  },
  {
    "office": "Kampung Padang Behor",
    "url": "https://postcode.my/perlis-kangar-kampung-padang-behor-01000.html",
    "city": "Kangar",
    "state": "Perlis",
    "postcode": "01000"
  },
  {
    "office": "Kampung Padang Gelam",
    "url": "https://postcode.my/perlis-kangar-kampung-padang-gelam-02400.html",
    "city": "Kangar",
    "state": "Perlis",
    "postcode": "02400"
  },
  {
    "office": "Kampung Padang Gelam",
    "url": "https://postcode.my/perlis-kangar-kampung-padang-gelam-02450.html",
    "city": "Kangar",
    "state": "Perlis",
    "postcode": "02450"
  },
  {
    "office": "Kampung Padang Jawa Seriab",
    "url": "https://postcode.my/perlis-kangar-kampung-padang-jawa-seriab-01000.html",
    "city": "Kangar",
    "state": "Perlis",
    "postcode": "01000"
  },
  {
    "office": "Kampung Padang Jelutong",
    "url": "https://postcode.my/perlis-kangar-kampung-padang-jelutong-02400.html",
    "city": "Kangar",
    "state": "Perlis",
    "postcode": "02400"
  },
  {
    "office": "Kampung Padang Jelutong",
    "url": "https://postcode.my/perlis-kangar-kampung-padang-jelutong-02450.html",
    "city": "Kangar",
    "state": "Perlis",
    "postcode": "02450"
  },
  {
    "office": "Kampung Padang Katong",
    "url": "https://postcode.my/perlis-kangar-kampung-padang-katong-01000.html",
    "city": "Kangar",
    "state": "Perlis",
    "postcode": "01000"
  },
  {
    "office": "Kampung Padang Kedepiang",
    "url": "https://postcode.my/perlis-kangar-kampung-padang-kedepiang-01000.html",
    "city": "Kangar",
    "state": "Perlis",
    "postcode": "01000"
  },
  {
    "office": "Kampung Padang Lati",
    "url": "https://postcode.my/perlis-kangar-kampung-padang-lati-02400.html",
    "city": "Kangar",
    "state": "Perlis",
    "postcode": "02400"
  },
  {
    "office": "Kampung Padang Machang",
    "url": "https://postcode.my/perlis-kangar-kampung-padang-machang-01000.html",
    "city": "Kangar",
    "state": "Perlis",
    "postcode": "01000"
  },
  {
    "office": "Kampung Padang Malau",
    "url": "https://postcode.my/perlis-kangar-kampung-padang-malau-02400.html",
    "city": "Kangar",
    "state": "Perlis",
    "postcode": "02400"
  },
  {
    "office": "Kampung Padang Melangit",
    "url": "https://postcode.my/perlis-kangar-kampung-padang-melangit-02400.html",
    "city": "Kangar",
    "state": "Perlis",
    "postcode": "02400"
  },
  {
    "office": "Kampung Padang Nyaring",
    "url": "https://postcode.my/perlis-kangar-kampung-padang-nyaring-01000.html",
    "city": "Kangar",
    "state": "Perlis",
    "postcode": "01000"
  },
  {
    "office": "Kampung Padang Nyu",
    "url": "https://postcode.my/perlis-kangar-kampung-padang-nyu-02500.html",
    "city": "Kangar",
    "state": "Perlis",
    "postcode": "02500"
  },
  {
    "office": "Kampung Padang Pauh",
    "url": "https://postcode.my/perlis-kangar-kampung-padang-pauh-01000.html",
    "city": "Kangar",
    "state": "Perlis",
    "postcode": "01000"
  },
  {
    "office": "Kampung Padang Petani",
    "url": "https://postcode.my/perlis-kangar-kampung-padang-petani-01000.html",
    "city": "Kangar",
    "state": "Perlis",
    "postcode": "01000"
  },
  {
    "office": "Kampung Padang Seberang",
    "url": "https://postcode.my/perlis-kangar-kampung-padang-seberang-01000.html",
    "city": "Kangar",
    "state": "Perlis",
    "postcode": "01000"
  },
  {
    "office": "Kampung Panggas",
    "url": "https://postcode.my/perlis-kangar-kampung-panggas-02500.html",
    "city": "Kangar",
    "state": "Perlis",
    "postcode": "02500"
  },
  {
    "office": "Kampung Panggas Besar",
    "url": "https://postcode.my/perlis-kangar-kampung-panggas-besar-02500.html",
    "city": "Kangar",
    "state": "Perlis",
    "postcode": "02500"
  },
  {
    "office": "Kampung Panggas Kechil",
    "url": "https://postcode.my/perlis-kangar-kampung-panggas-kechil-02500.html",
    "city": "Kangar",
    "state": "Perlis",
    "postcode": "02500"
  },
  {
    "office": "Kampung Panggau",
    "url": "https://postcode.my/perlis-kangar-kampung-panggau-01000.html",
    "city": "Kangar",
    "state": "Perlis",
    "postcode": "01000"
  },
  {
    "office": "Kampung Parit Jari",
    "url": "https://postcode.my/perlis-kangar-kampung-parit-jari-01000.html",
    "city": "Kangar",
    "state": "Perlis",
    "postcode": "01000"
  },
  {
    "office": "Kampung Paya",
    "url": "https://postcode.my/perlis-kangar-kampung-paya-02400.html",
    "city": "Kangar",
    "state": "Perlis",
    "postcode": "02400"
  },
  {
    "office": "Kampung Paya Burma",
    "url": "https://postcode.my/perlis-kangar-kampung-paya-burma-02500.html",
    "city": "Kangar",
    "state": "Perlis",
    "postcode": "02500"
  },
  {
    "office": "Kampung Paya Kelubi",
    "url": "https://postcode.my/perlis-kangar-kampung-paya-kelubi-02400.html",
    "city": "Kangar",
    "state": "Perlis",
    "postcode": "02400"
  },
  {
    "office": "Kampung Paya Kelubi",
    "url": "https://postcode.my/perlis-kangar-kampung-paya-kelubi-02450.html",
    "city": "Kangar",
    "state": "Perlis",
    "postcode": "02450"
  },
  {
    "office": "Kampung Paya Senduk",
    "url": "https://postcode.my/perlis-kangar-kampung-paya-senduk-02400.html",
    "city": "Kangar",
    "state": "Perlis",
    "postcode": "02400"
  },
  {
    "office": "Kampung Paya Ulu",
    "url": "https://postcode.my/perlis-kangar-kampung-paya-ulu-02400.html",
    "city": "Kangar",
    "state": "Perlis",
    "postcode": "02400"
  },
  {
    "office": "Kampung Penghulu Bakar",
    "url": "https://postcode.my/perlis-kangar-kampung-penghulu-bakar-01000.html",
    "city": "Kangar",
    "state": "Perlis",
    "postcode": "01000"
  },
  {
    "office": "Kampung Penghulu Jaafar",
    "url": "https://postcode.my/perlis-kangar-kampung-penghulu-jaafar-02400.html",
    "city": "Kangar",
    "state": "Perlis",
    "postcode": "02400"
  },
  {
    "office": "Kampung Pengkalan Asam",
    "url": "https://postcode.my/perlis-kangar-kampung-pengkalan-asam-01000.html",
    "city": "Kangar",
    "state": "Perlis",
    "postcode": "01000"
  },
  {
    "office": "Kampung Perawah",
    "url": "https://postcode.my/perlis-kangar-kampung-perawah-02400.html",
    "city": "Kangar",
    "state": "Perlis",
    "postcode": "02400"
  },
  {
    "office": "Kampung Perawah",
    "url": "https://postcode.my/perlis-kangar-kampung-perawah-02450.html",
    "city": "Kangar",
    "state": "Perlis",
    "postcode": "02450"
  },
  {
    "office": "Kampung Perik",
    "url": "https://postcode.my/perlis-kangar-kampung-perik-02500.html",
    "city": "Kangar",
    "state": "Perlis",
    "postcode": "02500"
  },
  {
    "office": "Kampung Peseri",
    "url": "https://postcode.my/perlis-kangar-kampung-peseri-01000.html",
    "city": "Kangar",
    "state": "Perlis",
    "postcode": "01000"
  },
  {
    "office": "Kampung Petai",
    "url": "https://postcode.my/perlis-kangar-kampung-petai-01000.html",
    "city": "Kangar",
    "state": "Perlis",
    "postcode": "01000"
  },
  {
    "office": "Kampung Petai Hilir",
    "url": "https://postcode.my/perlis-kangar-kampung-petai-hilir-01000.html",
    "city": "Kangar",
    "state": "Perlis",
    "postcode": "01000"
  },
  {
    "office": "Kampung Pokok Jawi",
    "url": "https://postcode.my/perlis-kangar-kampung-pokok-jawi-01000.html",
    "city": "Kangar",
    "state": "Perlis",
    "postcode": "01000"
  },
  {
    "office": "Kampung Pokok Petai",
    "url": "https://postcode.my/perlis-kangar-kampung-pokok-petai-02500.html",
    "city": "Kangar",
    "state": "Perlis",
    "postcode": "02500"
  },
  {
    "office": "Kampung Pokok Sena",
    "url": "https://postcode.my/perlis-kangar-kampung-pokok-sena-02500.html",
    "city": "Kangar",
    "state": "Perlis",
    "postcode": "02500"
  },
  {
    "office": "Kampung Pondok",
    "url": "https://postcode.my/perlis-kangar-kampung-pondok-01000.html",
    "city": "Kangar",
    "state": "Perlis",
    "postcode": "01000"
  },
  {
    "office": "Kampung Pulau",
    "url": "https://postcode.my/perlis-kangar-kampung-pulau-01000.html",
    "city": "Kangar",
    "state": "Perlis",
    "postcode": "01000"
  },
  {
    "office": "Kampung Raja Conggah",
    "url": "https://postcode.my/perlis-kangar-kampung-raja-conggah-02400.html",
    "city": "Kangar",
    "state": "Perlis",
    "postcode": "02400"
  },
  {
    "office": "Kampung Repoh",
    "url": "https://postcode.my/perlis-kangar-kampung-repoh-01000.html",
    "city": "Kangar",
    "state": "Perlis",
    "postcode": "01000"
  },
  {
    "office": "Kampung Repoh Dagang",
    "url": "https://postcode.my/perlis-kangar-kampung-repoh-dagang-01000.html",
    "city": "Kangar",
    "state": "Perlis",
    "postcode": "01000"
  },
  {
    "office": "Kampung Saikla",
    "url": "https://postcode.my/perlis-kangar-kampung-saikla-02500.html",
    "city": "Kangar",
    "state": "Perlis",
    "postcode": "02500"
  },
  {
    "office": "Kampung Salang",
    "url": "https://postcode.my/perlis-kangar-kampung-salang-01000.html",
    "city": "Kangar",
    "state": "Perlis",
    "postcode": "01000"
  },
  {
    "office": "Kampung Santan",
    "url": "https://postcode.my/perlis-kangar-kampung-santan-01000.html",
    "city": "Kangar",
    "state": "Perlis",
    "postcode": "01000"
  },
  {
    "office": "Kampung Santan Aur",
    "url": "https://postcode.my/perlis-kangar-kampung-santan-aur-01000.html",
    "city": "Kangar",
    "state": "Perlis",
    "postcode": "01000"
  },
  {
    "office": "Kampung Santan Belat",
    "url": "https://postcode.my/perlis-kangar-kampung-santan-belat-01000.html",
    "city": "Kangar",
    "state": "Perlis",
    "postcode": "01000"
  },
  {
    "office": "Kampung Santan Enam",
    "url": "https://postcode.my/perlis-kangar-kampung-santan-enam-01000.html",
    "city": "Kangar",
    "state": "Perlis",
    "postcode": "01000"
  },
  {
    "office": "Kampung Santan Masjid",
    "url": "https://postcode.my/perlis-kangar-kampung-santan-masjid-01000.html",
    "city": "Kangar",
    "state": "Perlis",
    "postcode": "01000"
  },
  {
    "office": "Kampung Semadong",
    "url": "https://postcode.my/perlis-kangar-kampung-semadong-02400.html",
    "city": "Kangar",
    "state": "Perlis",
    "postcode": "02400"
  },
  {
    "office": "Kampung Semadung",
    "url": "https://postcode.my/perlis-kangar-kampung-semadung-02400.html",
    "city": "Kangar",
    "state": "Perlis",
    "postcode": "02400"
  },
  {
    "office": "Kampung Sempering",
    "url": "https://postcode.my/perlis-kangar-kampung-sempering-01000.html",
    "city": "Kangar",
    "state": "Perlis",
    "postcode": "01000"
  },
  {
    "office": "Kampung Sena",
    "url": "https://postcode.my/perlis-kangar-kampung-sena-01000.html",
    "city": "Kangar",
    "state": "Perlis",
    "postcode": "01000"
  },
  {
    "office": "Kampung Sena Rendang",
    "url": "https://postcode.my/perlis-kangar-kampung-sena-rendang-02400.html",
    "city": "Kangar",
    "state": "Perlis",
    "postcode": "02400"
  },
  {
    "office": "Kampung Sena Sematang",
    "url": "https://postcode.my/perlis-kangar-kampung-sena-sematang-01000.html",
    "city": "Kangar",
    "state": "Perlis",
    "postcode": "01000"
  },
  {
    "office": "Kampung Sentang",
    "url": "https://postcode.my/perlis-kangar-kampung-sentang-01000.html",
    "city": "Kangar",
    "state": "Perlis",
    "postcode": "01000"
  },
  {
    "office": "Kampung Sentua",
    "url": "https://postcode.my/perlis-kangar-kampung-sentua-01000.html",
    "city": "Kangar",
    "state": "Perlis",
    "postcode": "01000"
  },
  {
    "office": "Kampung Seriab",
    "url": "https://postcode.my/perlis-kangar-kampung-seriab-01000.html",
    "city": "Kangar",
    "state": "Perlis",
    "postcode": "01000"
  },
  {
    "office": "Kampung Simpang 3 Kilang Gula",
    "url": "https://postcode.my/perlis-kangar-kampung-simpang-3-kilang-gula-02400.html",
    "city": "Kangar",
    "state": "Perlis",
    "postcode": "02400"
  },
  {
    "office": "Kampung Simpang 3 Panggas",
    "url": "https://postcode.my/perlis-kangar-kampung-simpang-3-panggas-02400.html",
    "city": "Kangar",
    "state": "Perlis",
    "postcode": "02400"
  },
  {
    "office": "Kampung Simpang Geti",
    "url": "https://postcode.my/perlis-kangar-kampung-simpang-geti-02500.html",
    "city": "Kangar",
    "state": "Perlis",
    "postcode": "02500"
  },
  {
    "office": "Kampung Songla",
    "url": "https://postcode.my/perlis-kangar-kampung-songla-02400.html",
    "city": "Kangar",
    "state": "Perlis",
    "postcode": "02400"
  },
  {
    "office": "Kampung Songla",
    "url": "https://postcode.my/perlis-kangar-kampung-songla-02450.html",
    "city": "Kangar",
    "state": "Perlis",
    "postcode": "02450"
  },
  {
    "office": "Kampung Sungai Bakong",
    "url": "https://postcode.my/perlis-kangar-kampung-sungai-bakong-01000.html",
    "city": "Kangar",
    "state": "Perlis",
    "postcode": "01000"
  },
  {
    "office": "Kampung Sungai Baru",
    "url": "https://postcode.my/perlis-kangar-kampung-sungai-baru-01000.html",
    "city": "Kangar",
    "state": "Perlis",
    "postcode": "01000"
  },
  {
    "office": "Kampung Sungai Baru Serai",
    "url": "https://postcode.my/perlis-kangar-kampung-sungai-baru-serai-02400.html",
    "city": "Kangar",
    "state": "Perlis",
    "postcode": "02400"
  },
  {
    "office": "Kampung Sungai Buloh",
    "url": "https://postcode.my/perlis-kangar-kampung-sungai-buloh-02400.html",
    "city": "Kangar",
    "state": "Perlis",
    "postcode": "02400"
  },
  {
    "office": "Kampung Sungai Buloh",
    "url": "https://postcode.my/perlis-kangar-kampung-sungai-buloh-02450.html",
    "city": "Kangar",
    "state": "Perlis",
    "postcode": "02450"
  },
  {
    "office": "Kampung Sungai Jerneh",
    "url": "https://postcode.my/perlis-kangar-kampung-sungai-jerneh-02400.html",
    "city": "Kangar",
    "state": "Perlis",
    "postcode": "02400"
  },
  {
    "office": "Kampung Sungai Mati",
    "url": "https://postcode.my/perlis-kangar-kampung-sungai-mati-02500.html",
    "city": "Kangar",
    "state": "Perlis",
    "postcode": "02500"
  },
  {
    "office": "Kampung Sungai Paya",
    "url": "https://postcode.my/perlis-kangar-kampung-sungai-paya-02400.html",
    "city": "Kangar",
    "state": "Perlis",
    "postcode": "02400"
  },
  {
    "office": "Kampung Sungai Santan",
    "url": "https://postcode.my/perlis-kangar-kampung-sungai-santan-01000.html",
    "city": "Kangar",
    "state": "Perlis",
    "postcode": "01000"
  },
  {
    "office": "Kampung Sungai Serai",
    "url": "https://postcode.my/perlis-kangar-kampung-sungai-serai-02400.html",
    "city": "Kangar",
    "state": "Perlis",
    "postcode": "02400"
  },
  {
    "office": "Kampung Sungai Siran",
    "url": "https://postcode.my/perlis-kangar-kampung-sungai-siran-01000.html",
    "city": "Kangar",
    "state": "Perlis",
    "postcode": "01000"
  },
  {
    "office": "Kampung Surau",
    "url": "https://postcode.my/perlis-kangar-kampung-surau-01000.html",
    "city": "Kangar",
    "state": "Perlis",
    "postcode": "01000"
  },
  {
    "office": "Kampung Syed Umar",
    "url": "https://postcode.my/perlis-kangar-kampung-syed-umar-01000.html",
    "city": "Kangar",
    "state": "Perlis",
    "postcode": "01000"
  },
  {
    "office": "Kampung Tanjong",
    "url": "https://postcode.my/perlis-kangar-kampung-tanjong-02400.html",
    "city": "Kangar",
    "state": "Perlis",
    "postcode": "02400"
  },
  {
    "office": "Kampung Tanjung",
    "url": "https://postcode.my/perlis-kangar-kampung-tanjung-01000.html",
    "city": "Kangar",
    "state": "Perlis",
    "postcode": "01000"
  },
  {
    "office": "Kampung Tanjung Buluh",
    "url": "https://postcode.my/perlis-kangar-kampung-tanjung-buluh-01000.html",
    "city": "Kangar",
    "state": "Perlis",
    "postcode": "01000"
  },
  {
    "office": "Kampung Tanjung Gorah",
    "url": "https://postcode.my/perlis-kangar-kampung-tanjung-gorah-01000.html",
    "city": "Kangar",
    "state": "Perlis",
    "postcode": "01000"
  },
  {
    "office": "Kampung Tanjung Sila",
    "url": "https://postcode.my/perlis-kangar-kampung-tanjung-sila-01000.html",
    "city": "Kangar",
    "state": "Perlis",
    "postcode": "01000"
  },
  {
    "office": "Kampung Tebing Tinggi",
    "url": "https://postcode.my/perlis-kangar-kampung-tebing-tinggi-01000.html",
    "city": "Kangar",
    "state": "Perlis",
    "postcode": "01000"
  },
  {
    "office": "Kampung Telaga Idi",
    "url": "https://postcode.my/perlis-kangar-kampung-telaga-idi-01000.html",
    "city": "Kangar",
    "state": "Perlis",
    "postcode": "01000"
  },
  {
    "office": "Kampung Telaga Nyiur Manis",
    "url": "https://postcode.my/perlis-kangar-kampung-telaga-nyiur-manis-01000.html",
    "city": "Kangar",
    "state": "Perlis",
    "postcode": "01000"
  },
  {
    "office": "Kampung Telok Epa",
    "url": "https://postcode.my/perlis-kangar-kampung-telok-epa-01000.html",
    "city": "Kangar",
    "state": "Perlis",
    "postcode": "01000"
  },
  {
    "office": "Kampung Telok Gelam",
    "url": "https://postcode.my/perlis-kangar-kampung-telok-gelam-01000.html",
    "city": "Kangar",
    "state": "Perlis",
    "postcode": "01000"
  },
  {
    "office": "Kampung Telok Jambu",
    "url": "https://postcode.my/perlis-kangar-kampung-telok-jambu-01000.html",
    "city": "Kangar",
    "state": "Perlis",
    "postcode": "01000"
  },
  {
    "office": "Kampung Telok Kacang",
    "url": "https://postcode.my/perlis-kangar-kampung-telok-kacang-01000.html",
    "city": "Kangar",
    "state": "Perlis",
    "postcode": "01000"
  },
  {
    "office": "Kampung Telok Tui",
    "url": "https://postcode.my/perlis-kangar-kampung-telok-tui-01000.html",
    "city": "Kangar",
    "state": "Perlis",
    "postcode": "01000"
  },
  {
    "office": "Kampung Temak",
    "url": "https://postcode.my/perlis-kangar-kampung-temak-01000.html",
    "city": "Kangar",
    "state": "Perlis",
    "postcode": "01000"
  },
  {
    "office": "Kampung Tengah Abi",
    "url": "https://postcode.my/perlis-kangar-kampung-tengah-abi-01000.html",
    "city": "Kangar",
    "state": "Perlis",
    "postcode": "01000"
  },
  {
    "office": "Kampung Titi Tampang",
    "url": "https://postcode.my/perlis-kangar-kampung-titi-tampang-02400.html",
    "city": "Kangar",
    "state": "Perlis",
    "postcode": "02400"
  },
  {
    "office": "Kampung Titi Teras",
    "url": "https://postcode.my/perlis-kangar-kampung-titi-teras-01000.html",
    "city": "Kangar",
    "state": "Perlis",
    "postcode": "01000"
  },
  {
    "office": "Kampung Titi Tok Bandar",
    "url": "https://postcode.my/perlis-kangar-kampung-titi-tok-bandar-01000.html",
    "city": "Kangar",
    "state": "Perlis",
    "postcode": "01000"
  },
  {
    "office": "Kampung Tok Dewa",
    "url": "https://postcode.my/perlis-kangar-kampung-tok-dewa-01000.html",
    "city": "Kangar",
    "state": "Perlis",
    "postcode": "01000"
  },
  {
    "office": "Kampung Tok Gong",
    "url": "https://postcode.my/perlis-kangar-kampung-tok-gong-01000.html",
    "city": "Kangar",
    "state": "Perlis",
    "postcode": "01000"
  },
  {
    "office": "Kampung Tok Jawa",
    "url": "https://postcode.my/perlis-kangar-kampung-tok-jawa-01000.html",
    "city": "Kangar",
    "state": "Perlis",
    "postcode": "01000"
  },
  {
    "office": "Kampung Tok Jepun",
    "url": "https://postcode.my/perlis-kangar-kampung-tok-jepun-01000.html",
    "city": "Kangar",
    "state": "Perlis",
    "postcode": "01000"
  },
  {
    "office": "Kampung Tok Kandang",
    "url": "https://postcode.my/perlis-kangar-kampung-tok-kandang-01000.html",
    "city": "Kangar",
    "state": "Perlis",
    "postcode": "01000"
  },
  {
    "office": "Kampung Tok Kembong",
    "url": "https://postcode.my/perlis-kangar-kampung-tok-kembong-01000.html",
    "city": "Kangar",
    "state": "Perlis",
    "postcode": "01000"
  },
  {
    "office": "Kampung Tok Larak",
    "url": "https://postcode.my/perlis-kangar-kampung-tok-larak-01000.html",
    "city": "Kangar",
    "state": "Perlis",
    "postcode": "01000"
  },
  {
    "office": "Kampung Tok Peduka",
    "url": "https://postcode.my/perlis-kangar-kampung-tok-peduka-01000.html",
    "city": "Kangar",
    "state": "Perlis",
    "postcode": "01000"
  },
  {
    "office": "Kampung Tok Pong",
    "url": "https://postcode.my/perlis-kangar-kampung-tok-pong-01000.html",
    "city": "Kangar",
    "state": "Perlis",
    "postcode": "01000"
  },
  {
    "office": "Kampung Tok Sumbing",
    "url": "https://postcode.my/perlis-kangar-kampung-tok-sumbing-01000.html",
    "city": "Kangar",
    "state": "Perlis",
    "postcode": "01000"
  },
  {
    "office": "Kampung Tunjong Beseri",
    "url": "https://postcode.my/perlis-kangar-kampung-tunjong-beseri-02400.html",
    "city": "Kangar",
    "state": "Perlis",
    "postcode": "02400"
  },
  {
    "office": "Kampung Ujung Bukit",
    "url": "https://postcode.my/perlis-kangar-kampung-ujung-bukit-01000.html",
    "city": "Kangar",
    "state": "Perlis",
    "postcode": "01000"
  },
  {
    "office": "Kampung Utan Aji",
    "url": "https://postcode.my/perlis-kangar-kampung-utan-aji-01000.html",
    "city": "Kangar",
    "state": "Perlis",
    "postcode": "01000"
  },
  {
    "office": "Kampung Utan Temak",
    "url": "https://postcode.my/perlis-kangar-kampung-utan-temak-01000.html",
    "city": "Kangar",
    "state": "Perlis",
    "postcode": "01000"
  },
  {
    "office": "Kampung Wang Belimbing",
    "url": "https://postcode.my/perlis-kangar-kampung-wang-belimbing-01000.html",
    "city": "Kangar",
    "state": "Perlis",
    "postcode": "01000"
  },
  {
    "office": "Kampung Wang Besar",
    "url": "https://postcode.my/perlis-kangar-kampung-wang-besar-01000.html",
    "city": "Kangar",
    "state": "Perlis",
    "postcode": "01000"
  },
  {
    "office": "Kampung Wang Pisang",
    "url": "https://postcode.my/perlis-kangar-kampung-wang-pisang-02400.html",
    "city": "Kangar",
    "state": "Perlis",
    "postcode": "02400"
  },
  {
    "office": "Kampung Wang Tangga",
    "url": "https://postcode.my/perlis-kangar-kampung-wang-tangga-02400.html",
    "city": "Kangar",
    "state": "Perlis",
    "postcode": "02400"
  },
  {
    "office": "Kampung Wang Tengku Lembu",
    "url": "https://postcode.my/perlis-kangar-kampung-wang-tengku-lembu-02400.html",
    "city": "Kangar",
    "state": "Perlis",
    "postcode": "02400"
  },
  {
    "office": "Kampung Wang Ulu",
    "url": "https://postcode.my/perlis-kangar-kampung-wang-ulu-01000.html",
    "city": "Kangar",
    "state": "Perlis",
    "postcode": "01000"
  },
  {
    "office": "Kangar",
    "url": "https://postcode.my/perlis-kangar-kangar-01000.html",
    "city": "Kangar",
    "state": "Perlis",
    "postcode": "01000"
  },
  {
    "office": "Kangar - Beg berkunci",
    "url": "https://postcode.my/perlis-kangar-kangar-beg-berkunci-01009.html",
    "city": "Kangar",
    "state": "Perlis",
    "postcode": "01009"
  },
  {
    "office": "Kangar - Peti surat",
    "url": "https://postcode.my/perlis-kangar-kangar-peti-surat-01007.html",
    "city": "Kangar",
    "state": "Perlis",
    "postcode": "01007"
  },
  {
    "office": "Ketua Polis Negeri",
    "url": "https://postcode.my/perlis-kangar-ketua-polis-negeri-01560.html",
    "city": "Kangar",
    "state": "Perlis",
    "postcode": "01560"
  },
  {
    "office": "Kilang Gula",
    "url": "https://postcode.my/perlis-kangar-kilang-gula-02400.html",
    "city": "Kangar",
    "state": "Perlis",
    "postcode": "02400"
  },
  {
    "office": "Klinik Desa Batu 9",
    "url": "https://postcode.my/perlis-kangar-klinik-desa-batu-9-02400.html",
    "city": "Kangar",
    "state": "Perlis",
    "postcode": "02400"
  },
  {
    "office": "Kok Klang",
    "url": "https://postcode.my/perlis-kangar-kok-klang-02500.html",
    "city": "Kangar",
    "state": "Perlis",
    "postcode": "02500"
  },
  {
    "office": "Kubang Arang",
    "url": "https://postcode.my/perlis-kangar-kubang-arang-01000.html",
    "city": "Kangar",
    "state": "Perlis",
    "postcode": "01000"
  },
  {
    "office": "Kumpulan Wang Simpanan Pekerja",
    "url": "https://postcode.my/perlis-kangar-kumpulan-wang-simpanan-pekerja-01598.html",
    "city": "Kangar",
    "state": "Perlis",
    "postcode": "01598"
  },
  {
    "office": "Lembaga Hasil Dalam Negeri",
    "url": "https://postcode.my/perlis-kangar-lembaga-hasil-dalam-negeri-01600.html",
    "city": "Kangar",
    "state": "Perlis",
    "postcode": "01600"
  },
  {
    "office": "Lembaga Pertubuhan Peladang",
    "url": "https://postcode.my/perlis-kangar-lembaga-pertubuhan-peladang-02400.html",
    "city": "Kangar",
    "state": "Perlis",
    "postcode": "02400"
  },
  {
    "office": "Lembaga Tembakau Negara",
    "url": "https://postcode.my/perlis-kangar-lembaga-tembakau-negara-02400.html",
    "city": "Kangar",
    "state": "Perlis",
    "postcode": "02400"
  },
  {
    "office": "Lorong Haji Seman",
    "url": "https://postcode.my/perlis-kangar-lorong-haji-seman-01000.html",
    "city": "Kangar",
    "state": "Perlis",
    "postcode": "01000"
  },
  {
    "office": "Lorong Kampung Sena",
    "url": "https://postcode.my/perlis-kangar-lorong-kampung-sena-01000.html",
    "city": "Kangar",
    "state": "Perlis",
    "postcode": "01000"
  },
  {
    "office": "Lorong Nisam",
    "url": "https://postcode.my/perlis-kangar-lorong-nisam-01000.html",
    "city": "Kangar",
    "state": "Perlis",
    "postcode": "01000"
  },
  {
    "office": "Lorong Sekolah",
    "url": "https://postcode.my/perlis-kangar-lorong-sekolah-01000.html",
    "city": "Kangar",
    "state": "Perlis",
    "postcode": "01000"
  },
  {
    "office": "Lubuk Besar",
    "url": "https://postcode.my/perlis-kangar-lubuk-besar-02400.html",
    "city": "Kangar",
    "state": "Perlis",
    "postcode": "02400"
  },
  {
    "office": "Lubuk Besar",
    "url": "https://postcode.my/perlis-kangar-lubuk-besar-02500.html",
    "city": "Kangar",
    "state": "Perlis",
    "postcode": "02500"
  },
  {
    "office": "Lukuk Gajah",
    "url": "https://postcode.my/perlis-kangar-lukuk-gajah-01000.html",
    "city": "Kangar",
    "state": "Perlis",
    "postcode": "01000"
  },
  {
    "office": "Mahkamah Sesyen",
    "url": "https://postcode.my/perlis-kangar-mahkamah-sesyen-01506.html",
    "city": "Kangar",
    "state": "Perlis",
    "postcode": "01506"
  },
  {
    "office": "Mahkamah Tinggi",
    "url": "https://postcode.my/perlis-kangar-mahkamah-tinggi-01506.html",
    "city": "Kangar",
    "state": "Perlis",
    "postcode": "01506"
  },
  {
    "office": "Majlis Perbandaran Kangar",
    "url": "https://postcode.my/perlis-kangar-majlis-perbandaran-kangar-01644.html",
    "city": "Kangar",
    "state": "Perlis",
    "postcode": "01644"
  },
  {
    "office": "Maktab Rendah Sains Mara",
    "url": "https://postcode.my/perlis-kangar-maktab-rendah-sains-mara-02400.html",
    "city": "Kangar",
    "state": "Perlis",
    "postcode": "02400"
  },
  {
    "office": "Mata Ayer",
    "url": "https://postcode.my/perlis-kangar-mata-ayer-02500.html",
    "city": "Kangar",
    "state": "Perlis",
    "postcode": "02500"
  },
  {
    "office": "Mengkuang Layar",
    "url": "https://postcode.my/perlis-kangar-mengkuang-layar-01000.html",
    "city": "Kangar",
    "state": "Perlis",
    "postcode": "01000"
  },
  {
    "office": "Padang Bohor",
    "url": "https://postcode.my/perlis-kangar-padang-bohor-01000.html",
    "city": "Kangar",
    "state": "Perlis",
    "postcode": "01000"
  },
  {
    "office": "Padang Lati",
    "url": "https://postcode.my/perlis-kangar-padang-lati-02400.html",
    "city": "Kangar",
    "state": "Perlis",
    "postcode": "02400"
  },
  {
    "office": "Panglima Markas 12 Briged",
    "url": "https://postcode.my/perlis-kangar-panglima-markas-12-briged-01634.html",
    "city": "Kangar",
    "state": "Perlis",
    "postcode": "01634"
  },
  {
    "office": "Paya Batu 5",
    "url": "https://postcode.my/perlis-kangar-paya-batu-5-02400.html",
    "city": "Kangar",
    "state": "Perlis",
    "postcode": "02400"
  },
  {
    "office": "Paya Besar",
    "url": "https://postcode.my/perlis-kangar-paya-besar-02400.html",
    "city": "Kangar",
    "state": "Perlis",
    "postcode": "02400"
  },
  {
    "office": "Paya Pauh Gembol",
    "url": "https://postcode.my/perlis-kangar-paya-pauh-gembol-02400.html",
    "city": "Kangar",
    "state": "Perlis",
    "postcode": "02400"
  },
  {
    "office": "Paya Senduk",
    "url": "https://postcode.my/perlis-kangar-paya-senduk-02400.html",
    "city": "Kangar",
    "state": "Perlis",
    "postcode": "02400"
  },
  {
    "office": "Paya Tengah",
    "url": "https://postcode.my/perlis-kangar-paya-tengah-02400.html",
    "city": "Kangar",
    "state": "Perlis",
    "postcode": "02400"
  },
  {
    "office": "Pegawai Kemajuan Negeri",
    "url": "https://postcode.my/perlis-kangar-pegawai-kemajuan-negeri-01674.html",
    "city": "Kangar",
    "state": "Perlis",
    "postcode": "01674"
  },
  {
    "office": "Pegawai Kewangan Negeri",
    "url": "https://postcode.my/perlis-kangar-pegawai-kewangan-negeri-01592.html",
    "city": "Kangar",
    "state": "Perlis",
    "postcode": "01592"
  },
  {
    "office": "Pejabat Felda",
    "url": "https://postcode.my/perlis-kangar-pejabat-felda-02500.html",
    "city": "Kangar",
    "state": "Perlis",
    "postcode": "02500"
  },
  {
    "office": "Pejabat Mara Negeri",
    "url": "https://postcode.my/perlis-kangar-pejabat-mara-negeri-01609.html",
    "city": "Kangar",
    "state": "Perlis",
    "postcode": "01609"
  },
  {
    "office": "Pejabat Rela Negeri",
    "url": "https://postcode.my/perlis-kangar-pejabat-rela-negeri-01546.html",
    "city": "Kangar",
    "state": "Perlis",
    "postcode": "01546"
  },
  {
    "office": "Pekan Gate Mata Air",
    "url": "https://postcode.my/perlis-kangar-pekan-gate-mata-air-02500.html",
    "city": "Kangar",
    "state": "Perlis",
    "postcode": "02500"
  },
  {
    "office": "Penasihat Undang-Undang Negeri",
    "url": "https://postcode.my/perlis-kangar-penasihat-undang-undang-negeri-01512.html",
    "city": "Kangar",
    "state": "Perlis",
    "postcode": "01512"
  },
  {
    "office": "Pengkalan Asam",
    "url": "https://postcode.my/perlis-kangar-pengkalan-asam-01000.html",
    "city": "Kangar",
    "state": "Perlis",
    "postcode": "01000"
  },
  {
    "office": "Perpustakaan Awam Negeri",
    "url": "https://postcode.my/perlis-kangar-perpustakaan-awam-negeri-01572.html",
    "city": "Kangar",
    "state": "Perlis",
    "postcode": "01572"
  },
  {
    "office": "Perumahan Awam Bohor Lateh",
    "url": "https://postcode.my/perlis-kangar-perumahan-awam-bohor-lateh-01000.html",
    "city": "Kangar",
    "state": "Perlis",
    "postcode": "01000"
  },
  {
    "office": "Perumahan Awam Santan",
    "url": "https://postcode.my/perlis-kangar-perumahan-awam-santan-01000.html",
    "city": "Kangar",
    "state": "Perlis",
    "postcode": "01000"
  },
  {
    "office": "Perumahan Kilang Gula",
    "url": "https://postcode.my/perlis-kangar-perumahan-kilang-gula-02400.html",
    "city": "Kangar",
    "state": "Perlis",
    "postcode": "02400"
  },
  {
    "office": "Perumahan Perlis Plantation",
    "url": "https://postcode.my/perlis-kangar-perumahan-perlis-plantation-02400.html",
    "city": "Kangar",
    "state": "Perlis",
    "postcode": "02400"
  },
  {
    "office": "Pos Malaysia Berhad",
    "url": "https://postcode.my/perlis-kangar-pos-malaysia-berhad-01670.html",
    "city": "Kangar",
    "state": "Perlis",
    "postcode": "01670"
  },
  {
    "office": "Pusat Giat Mara",
    "url": "https://postcode.my/perlis-kangar-pusat-giat-mara-02500.html",
    "city": "Kangar",
    "state": "Perlis",
    "postcode": "02500"
  },
  {
    "office": "Pusat Haiwan Bukit Temiang",
    "url": "https://postcode.my/perlis-kangar-pusat-haiwan-bukit-temiang-02400.html",
    "city": "Kangar",
    "state": "Perlis",
    "postcode": "02400"
  },
  {
    "office": "Repoh",
    "url": "https://postcode.my/perlis-kangar-repoh-01000.html",
    "city": "Kangar",
    "state": "Perlis",
    "postcode": "01000"
  },
  {
    "office": "RPA Batu 8",
    "url": "https://postcode.my/perlis-kangar-rpa-batu-8-02400.html",
    "city": "Kangar",
    "state": "Perlis",
    "postcode": "02400"
  },
  {
    "office": "RPA Bukit Keteri",
    "url": "https://postcode.my/perlis-kangar-rpa-bukit-keteri-02400.html",
    "city": "Kangar",
    "state": "Perlis",
    "postcode": "02400"
  },
  {
    "office": "RPA Chuping",
    "url": "https://postcode.my/perlis-kangar-rpa-chuping-02400.html",
    "city": "Kangar",
    "state": "Perlis",
    "postcode": "02400"
  },
  {
    "office": "Sekolah Jenis Kebangsaan Cina (Kong Aik)",
    "url": "https://postcode.my/perlis-kangar-sekolah-jenis-kebangsaan-cina-kong-aik-02500.html",
    "city": "Kangar",
    "state": "Perlis",
    "postcode": "02500"
  },
  {
    "office": "Sekolah Menengah Semadung",
    "url": "https://postcode.my/perlis-kangar-sekolah-menengah-semadung-02400.html",
    "city": "Kangar",
    "state": "Perlis",
    "postcode": "02400"
  },
  {
    "office": "Sena Rendang",
    "url": "https://postcode.my/perlis-kangar-sena-rendang-01000.html",
    "city": "Kangar",
    "state": "Perlis",
    "postcode": "01000"
  },
  {
    "office": "Setiausaha Kerajaan Negeri",
    "url": "https://postcode.my/perlis-kangar-setiausaha-kerajaan-negeri-01503.html",
    "city": "Kangar",
    "state": "Perlis",
    "postcode": "01503"
  },
  {
    "office": "Setiausaha Keselamatan Negeri",
    "url": "https://postcode.my/perlis-kangar-setiausaha-keselamatan-negeri-01524.html",
    "city": "Kangar",
    "state": "Perlis",
    "postcode": "01524"
  },
  {
    "office": "Stesen Meteriologi",
    "url": "https://postcode.my/perlis-kangar-stesen-meteriologi-02500.html",
    "city": "Kangar",
    "state": "Perlis",
    "postcode": "02500"
  },
  {
    "office": "Taman 20 ( F1, 2)",
    "url": "https://postcode.my/perlis-kangar-taman-20-f1-2-02400.html",
    "city": "Kangar",
    "state": "Perlis",
    "postcode": "02400"
  },
  {
    "office": "Taman Abu Bakar Munir",
    "url": "https://postcode.my/perlis-kangar-taman-abu-bakar-munir-01000.html",
    "city": "Kangar",
    "state": "Perlis",
    "postcode": "01000"
  },
  {
    "office": "Taman Aman",
    "url": "https://postcode.my/perlis-kangar-taman-aman-01000.html",
    "city": "Kangar",
    "state": "Perlis",
    "postcode": "01000"
  },
  {
    "office": "Taman Angsana",
    "url": "https://postcode.my/perlis-kangar-taman-angsana-02400.html",
    "city": "Kangar",
    "state": "Perlis",
    "postcode": "02400"
  },
  {
    "office": "Taman Bahagia",
    "url": "https://postcode.my/perlis-kangar-taman-bahagia-02400.html",
    "city": "Kangar",
    "state": "Perlis",
    "postcode": "02400"
  },
  {
    "office": "Taman Bakau Emas",
    "url": "https://postcode.my/perlis-kangar-taman-bakau-emas-01000.html",
    "city": "Kangar",
    "state": "Perlis",
    "postcode": "01000"
  },
  {
    "office": "Taman Behor Indah",
    "url": "https://postcode.my/perlis-kangar-taman-behor-indah-01000.html",
    "city": "Kangar",
    "state": "Perlis",
    "postcode": "01000"
  },
  {
    "office": "Taman Beseri Indah",
    "url": "https://postcode.my/perlis-kangar-taman-beseri-indah-02400.html",
    "city": "Kangar",
    "state": "Perlis",
    "postcode": "02400"
  },
  {
    "office": "Taman Beseri Jaya",
    "url": "https://postcode.my/perlis-kangar-taman-beseri-jaya-02400.html",
    "city": "Kangar",
    "state": "Perlis",
    "postcode": "02400"
  },
  {
    "office": "Taman Beseri Murni",
    "url": "https://postcode.my/perlis-kangar-taman-beseri-murni-02400.html",
    "city": "Kangar",
    "state": "Perlis",
    "postcode": "02400"
  },
  {
    "office": "Taman Beseri Paya",
    "url": "https://postcode.my/perlis-kangar-taman-beseri-paya-02400.html",
    "city": "Kangar",
    "state": "Perlis",
    "postcode": "02400"
  },
  {
    "office": "Taman Bintong Maju",
    "url": "https://postcode.my/perlis-kangar-taman-bintong-maju-01000.html",
    "city": "Kangar",
    "state": "Perlis",
    "postcode": "01000"
  },
  {
    "office": "Taman Bintong Setia",
    "url": "https://postcode.my/perlis-kangar-taman-bintong-setia-01000.html",
    "city": "Kangar",
    "state": "Perlis",
    "postcode": "01000"
  },
  {
    "office": "Taman Bintong Utama",
    "url": "https://postcode.my/perlis-kangar-taman-bintong-utama-01000.html",
    "city": "Kangar",
    "state": "Perlis",
    "postcode": "01000"
  },
  {
    "office": "Taman Bukit Kaya",
    "url": "https://postcode.my/perlis-kangar-taman-bukit-kaya-01000.html",
    "city": "Kangar",
    "state": "Perlis",
    "postcode": "01000"
  },
  {
    "office": "Taman Bukit Kayangan",
    "url": "https://postcode.my/perlis-kangar-taman-bukit-kayangan-01000.html",
    "city": "Kangar",
    "state": "Perlis",
    "postcode": "01000"
  },
  {
    "office": "Taman Bumita",
    "url": "https://postcode.my/perlis-kangar-taman-bumita-01000.html",
    "city": "Kangar",
    "state": "Perlis",
    "postcode": "01000"
  },
  {
    "office": "Taman Bunga Geti",
    "url": "https://postcode.my/perlis-kangar-taman-bunga-geti-02400.html",
    "city": "Kangar",
    "state": "Perlis",
    "postcode": "02400"
  },
  {
    "office": "Taman Bunga Kemboja RPA",
    "url": "https://postcode.my/perlis-kangar-taman-bunga-kemboja-rpa-01000.html",
    "city": "Kangar",
    "state": "Perlis",
    "postcode": "01000"
  },
  {
    "office": "Taman Bunga Raya",
    "url": "https://postcode.my/perlis-kangar-taman-bunga-raya-01000.html",
    "city": "Kangar",
    "state": "Perlis",
    "postcode": "01000"
  },
  {
    "office": "Taman Cahaya",
    "url": "https://postcode.my/perlis-kangar-taman-cahaya-01000.html",
    "city": "Kangar",
    "state": "Perlis",
    "postcode": "01000"
  },
  {
    "office": "Taman Cergas",
    "url": "https://postcode.my/perlis-kangar-taman-cergas-01000.html",
    "city": "Kangar",
    "state": "Perlis",
    "postcode": "01000"
  },
  {
    "office": "Taman Ceria",
    "url": "https://postcode.my/perlis-kangar-taman-ceria-01000.html",
    "city": "Kangar",
    "state": "Perlis",
    "postcode": "01000"
  },
  {
    "office": "Taman Che Long",
    "url": "https://postcode.my/perlis-kangar-taman-che-long-02400.html",
    "city": "Kangar",
    "state": "Perlis",
    "postcode": "02400"
  },
  {
    "office": "Taman Choo Kee",
    "url": "https://postcode.my/perlis-kangar-taman-choo-kee-01000.html",
    "city": "Kangar",
    "state": "Perlis",
    "postcode": "01000"
  },
  {
    "office": "Taman Datuk Jaafar Hassan",
    "url": "https://postcode.my/perlis-kangar-taman-datuk-jaafar-hassan-01000.html",
    "city": "Kangar",
    "state": "Perlis",
    "postcode": "01000"
  },
  {
    "office": "Taman Datuk Setia",
    "url": "https://postcode.my/perlis-kangar-taman-datuk-setia-01000.html",
    "city": "Kangar",
    "state": "Perlis",
    "postcode": "01000"
  },
  {
    "office": "Taman Datuk Wan Ahmad",
    "url": "https://postcode.my/perlis-kangar-taman-datuk-wan-ahmad-01000.html",
    "city": "Kangar",
    "state": "Perlis",
    "postcode": "01000"
  },
  {
    "office": "Taman Desa Bintong",
    "url": "https://postcode.my/perlis-kangar-taman-desa-bintong-01000.html",
    "city": "Kangar",
    "state": "Perlis",
    "postcode": "01000"
  },
  {
    "office": "Taman Desa Jarak",
    "url": "https://postcode.my/perlis-kangar-taman-desa-jarak-01000.html",
    "city": "Kangar",
    "state": "Perlis",
    "postcode": "01000"
  },
  {
    "office": "Taman Desa Katong",
    "url": "https://postcode.my/perlis-kangar-taman-desa-katong-01000.html",
    "city": "Kangar",
    "state": "Perlis",
    "postcode": "01000"
  },
  {
    "office": "Taman Desa Kayangan",
    "url": "https://postcode.my/perlis-kangar-taman-desa-kayangan-01000.html",
    "city": "Kangar",
    "state": "Perlis",
    "postcode": "01000"
  },
  {
    "office": "Taman Desa Pulai",
    "url": "https://postcode.my/perlis-kangar-taman-desa-pulai-01000.html",
    "city": "Kangar",
    "state": "Perlis",
    "postcode": "01000"
  },
  {
    "office": "Taman Desa Putra",
    "url": "https://postcode.my/perlis-kangar-taman-desa-putra-01000.html",
    "city": "Kangar",
    "state": "Perlis",
    "postcode": "01000"
  },
  {
    "office": "Taman Desa Sentua",
    "url": "https://postcode.my/perlis-kangar-taman-desa-sentua-01000.html",
    "city": "Kangar",
    "state": "Perlis",
    "postcode": "01000"
  },
  {
    "office": "Taman Dua Puluh",
    "url": "https://postcode.my/perlis-kangar-taman-dua-puluh-02400.html",
    "city": "Kangar",
    "state": "Perlis",
    "postcode": "02400"
  },
  {
    "office": "Taman Fauziah",
    "url": "https://postcode.my/perlis-kangar-taman-fauziah-01000.html",
    "city": "Kangar",
    "state": "Perlis",
    "postcode": "01000"
  },
  {
    "office": "Taman Firdaus",
    "url": "https://postcode.my/perlis-kangar-taman-firdaus-01000.html",
    "city": "Kangar",
    "state": "Perlis",
    "postcode": "01000"
  },
  {
    "office": "Taman Gasing",
    "url": "https://postcode.my/perlis-kangar-taman-gasing-01000.html",
    "city": "Kangar",
    "state": "Perlis",
    "postcode": "01000"
  },
  {
    "office": "Taman Gembira",
    "url": "https://postcode.my/perlis-kangar-taman-gembira-01000.html",
    "city": "Kangar",
    "state": "Perlis",
    "postcode": "01000"
  },
  {
    "office": "Taman Geti",
    "url": "https://postcode.my/perlis-kangar-taman-geti-02400.html",
    "city": "Kangar",
    "state": "Perlis",
    "postcode": "02400"
  },
  {
    "office": "Taman Guru",
    "url": "https://postcode.my/perlis-kangar-taman-guru-01000.html",
    "city": "Kangar",
    "state": "Perlis",
    "postcode": "01000"
  },
  {
    "office": "Taman Guru Jaya",
    "url": "https://postcode.my/perlis-kangar-taman-guru-jaya-01000.html",
    "city": "Kangar",
    "state": "Perlis",
    "postcode": "01000"
  },
  {
    "office": "Taman Haji Ali (RPA)",
    "url": "https://postcode.my/perlis-kangar-taman-haji-ali-rpa-02500.html",
    "city": "Kangar",
    "state": "Perlis",
    "postcode": "02500"
  },
  {
    "office": "Taman Has Melati",
    "url": "https://postcode.my/perlis-kangar-taman-has-melati-02400.html",
    "city": "Kangar",
    "state": "Perlis",
    "postcode": "02400"
  },
  {
    "office": "Taman Haz Melati",
    "url": "https://postcode.my/perlis-kangar-taman-haz-melati-02400.html",
    "city": "Kangar",
    "state": "Perlis",
    "postcode": "02400"
  },
  {
    "office": "Taman Hijrah",
    "url": "https://postcode.my/perlis-kangar-taman-hijrah-01000.html",
    "city": "Kangar",
    "state": "Perlis",
    "postcode": "01000"
  },
  {
    "office": "Taman Idaman",
    "url": "https://postcode.my/perlis-kangar-taman-idaman-01000.html",
    "city": "Kangar",
    "state": "Perlis",
    "postcode": "01000"
  },
  {
    "office": "Taman Indera",
    "url": "https://postcode.my/perlis-kangar-taman-indera-01000.html",
    "city": "Kangar",
    "state": "Perlis",
    "postcode": "01000"
  },
  {
    "office": "Taman Intan",
    "url": "https://postcode.my/perlis-kangar-taman-intan-01000.html",
    "city": "Kangar",
    "state": "Perlis",
    "postcode": "01000"
  },
  {
    "office": "Taman Ira",
    "url": "https://postcode.my/perlis-kangar-taman-ira-01000.html",
    "city": "Kangar",
    "state": "Perlis",
    "postcode": "01000"
  },
  {
    "office": "Taman Jali",
    "url": "https://postcode.my/perlis-kangar-taman-jali-01000.html",
    "city": "Kangar",
    "state": "Perlis",
    "postcode": "01000"
  },
  {
    "office": "Taman Jarak",
    "url": "https://postcode.my/perlis-kangar-taman-jarak-01000.html",
    "city": "Kangar",
    "state": "Perlis",
    "postcode": "01000"
  },
  {
    "office": "Taman Jawi Matang",
    "url": "https://postcode.my/perlis-kangar-taman-jawi-matang-01000.html",
    "city": "Kangar",
    "state": "Perlis",
    "postcode": "01000"
  },
  {
    "office": "Taman Jaya",
    "url": "https://postcode.my/perlis-kangar-taman-jaya-01000.html",
    "city": "Kangar",
    "state": "Perlis",
    "postcode": "01000"
  },
  {
    "office": "Taman Jaya Diri",
    "url": "https://postcode.my/perlis-kangar-taman-jaya-diri-01000.html",
    "city": "Kangar",
    "state": "Perlis",
    "postcode": "01000"
  },
  {
    "office": "Taman Jejawi",
    "url": "https://postcode.my/perlis-kangar-taman-jejawi-01000.html",
    "city": "Kangar",
    "state": "Perlis",
    "postcode": "01000"
  },
  {
    "office": "Taman Jelati",
    "url": "https://postcode.my/perlis-kangar-taman-jelati-01000.html",
    "city": "Kangar",
    "state": "Perlis",
    "postcode": "01000"
  },
  {
    "office": "Taman Kangar",
    "url": "https://postcode.my/perlis-kangar-taman-kangar-01000.html",
    "city": "Kangar",
    "state": "Perlis",
    "postcode": "01000"
  },
  {
    "office": "Taman Kastam",
    "url": "https://postcode.my/perlis-kangar-taman-kastam-01000.html",
    "city": "Kangar",
    "state": "Perlis",
    "postcode": "01000"
  },
  {
    "office": "Taman Kayangan Indah",
    "url": "https://postcode.my/perlis-kangar-taman-kayangan-indah-01000.html",
    "city": "Kangar",
    "state": "Perlis",
    "postcode": "01000"
  },
  {
    "office": "Taman Kechor Indah",
    "url": "https://postcode.my/perlis-kangar-taman-kechor-indah-01000.html",
    "city": "Kangar",
    "state": "Perlis",
    "postcode": "01000"
  },
  {
    "office": "Taman Kechor Jaya",
    "url": "https://postcode.my/perlis-kangar-taman-kechor-jaya-01000.html",
    "city": "Kangar",
    "state": "Perlis",
    "postcode": "01000"
  },
  {
    "office": "Taman Kecor Indah",
    "url": "https://postcode.my/perlis-kangar-taman-kecor-indah-01000.html",
    "city": "Kangar",
    "state": "Perlis",
    "postcode": "01000"
  },
  {
    "office": "Taman Kemajuan",
    "url": "https://postcode.my/perlis-kangar-taman-kemajuan-01000.html",
    "city": "Kangar",
    "state": "Perlis",
    "postcode": "01000"
  },
  {
    "office": "Taman Kenanga",
    "url": "https://postcode.my/perlis-kangar-taman-kenanga-01000.html",
    "city": "Kangar",
    "state": "Perlis",
    "postcode": "01000"
  },
  {
    "office": "Taman Koperasi",
    "url": "https://postcode.my/perlis-kangar-taman-koperasi-01000.html",
    "city": "Kangar",
    "state": "Perlis",
    "postcode": "01000"
  },
  {
    "office": "Taman Lewata",
    "url": "https://postcode.my/perlis-kangar-taman-lewata-01000.html",
    "city": "Kangar",
    "state": "Perlis",
    "postcode": "01000"
  },
  {
    "office": "Taman Lima Naleh",
    "url": "https://postcode.my/perlis-kangar-taman-lima-naleh-01000.html",
    "city": "Kangar",
    "state": "Perlis",
    "postcode": "01000"
  },
  {
    "office": "Taman Mada Sepakat",
    "url": "https://postcode.my/perlis-kangar-taman-mada-sepakat-01000.html",
    "city": "Kangar",
    "state": "Perlis",
    "postcode": "01000"
  },
  {
    "office": "Taman Mas (Beseri)",
    "url": "https://postcode.my/perlis-kangar-taman-mas-beseri-02400.html",
    "city": "Kangar",
    "state": "Perlis",
    "postcode": "02400"
  },
  {
    "office": "Taman Mas Muda",
    "url": "https://postcode.my/perlis-kangar-taman-mas-muda-01000.html",
    "city": "Kangar",
    "state": "Perlis",
    "postcode": "01000"
  },
  {
    "office": "Taman Mas Putra",
    "url": "https://postcode.my/perlis-kangar-taman-mas-putra-01000.html",
    "city": "Kangar",
    "state": "Perlis",
    "postcode": "01000"
  },
  {
    "office": "Taman Mas Ria",
    "url": "https://postcode.my/perlis-kangar-taman-mas-ria-01000.html",
    "city": "Kangar",
    "state": "Perlis",
    "postcode": "01000"
  },
  {
    "office": "Taman Mata Air 2 (RPA)",
    "url": "https://postcode.my/perlis-kangar-taman-mata-air-2-rpa-02500.html",
    "city": "Kangar",
    "state": "Perlis",
    "postcode": "02500"
  },
  {
    "office": "Taman Mata Air 3 (RPA)",
    "url": "https://postcode.my/perlis-kangar-taman-mata-air-3-rpa-02500.html",
    "city": "Kangar",
    "state": "Perlis",
    "postcode": "02500"
  },
  {
    "office": "Taman Medan Sepakat",
    "url": "https://postcode.my/perlis-kangar-taman-medan-sepakat-01000.html",
    "city": "Kangar",
    "state": "Perlis",
    "postcode": "01000"
  },
  {
    "office": "Taman Melati Indah (Beseri)",
    "url": "https://postcode.my/perlis-kangar-taman-melati-indah-beseri-02400.html",
    "city": "Kangar",
    "state": "Perlis",
    "postcode": "02400"
  },
  {
    "office": "Taman Merpati",
    "url": "https://postcode.my/perlis-kangar-taman-merpati-01000.html",
    "city": "Kangar",
    "state": "Perlis",
    "postcode": "01000"
  },
  {
    "office": "Taman Mesra",
    "url": "https://postcode.my/perlis-kangar-taman-mesra-01000.html",
    "city": "Kangar",
    "state": "Perlis",
    "postcode": "01000"
  },
  {
    "office": "Taman Mesra Jejawi",
    "url": "https://postcode.my/perlis-kangar-taman-mesra-jejawi-01000.html",
    "city": "Kangar",
    "state": "Perlis",
    "postcode": "01000"
  },
  {
    "office": "Taman Mewah",
    "url": "https://postcode.my/perlis-kangar-taman-mewah-01000.html",
    "city": "Kangar",
    "state": "Perlis",
    "postcode": "01000"
  },
  {
    "office": "Taman Muda Sepakat",
    "url": "https://postcode.my/perlis-kangar-taman-muda-sepakat-01000.html",
    "city": "Kangar",
    "state": "Perlis",
    "postcode": "01000"
  },
  {
    "office": "Taman Murni",
    "url": "https://postcode.my/perlis-kangar-taman-murni-01000.html",
    "city": "Kangar",
    "state": "Perlis",
    "postcode": "01000"
  },
  {
    "office": "Taman Mutiara",
    "url": "https://postcode.my/perlis-kangar-taman-mutiara-01000.html",
    "city": "Kangar",
    "state": "Perlis",
    "postcode": "01000"
  },
  {
    "office": "Taman Norma",
    "url": "https://postcode.my/perlis-kangar-taman-norma-01000.html",
    "city": "Kangar",
    "state": "Perlis",
    "postcode": "01000"
  },
  {
    "office": "Taman Padang Nyu",
    "url": "https://postcode.my/perlis-kangar-taman-padang-nyu-02500.html",
    "city": "Kangar",
    "state": "Perlis",
    "postcode": "02500"
  },
  {
    "office": "Taman Peduka",
    "url": "https://postcode.my/perlis-kangar-taman-peduka-01000.html",
    "city": "Kangar",
    "state": "Perlis",
    "postcode": "01000"
  },
  {
    "office": "Taman Pekeliling",
    "url": "https://postcode.my/perlis-kangar-taman-pekeliling-01000.html",
    "city": "Kangar",
    "state": "Perlis",
    "postcode": "01000"
  },
  {
    "office": "Taman Pengkalan Assam",
    "url": "https://postcode.my/perlis-kangar-taman-pengkalan-assam-01000.html",
    "city": "Kangar",
    "state": "Perlis",
    "postcode": "01000"
  },
  {
    "office": "Taman Pengkalan Indah",
    "url": "https://postcode.my/perlis-kangar-taman-pengkalan-indah-01000.html",
    "city": "Kangar",
    "state": "Perlis",
    "postcode": "01000"
  },
  {
    "office": "Taman Perlis",
    "url": "https://postcode.my/perlis-kangar-taman-perlis-01000.html",
    "city": "Kangar",
    "state": "Perlis",
    "postcode": "01000"
  },
  {
    "office": "Taman Permai",
    "url": "https://postcode.my/perlis-kangar-taman-permai-01000.html",
    "city": "Kangar",
    "state": "Perlis",
    "postcode": "01000"
  },
  {
    "office": "Taman Permai",
    "url": "https://postcode.my/perlis-kangar-taman-permai-02400.html",
    "city": "Kangar",
    "state": "Perlis",
    "postcode": "02400"
  },
  {
    "office": "Taman Permata",
    "url": "https://postcode.my/perlis-kangar-taman-permata-02500.html",
    "city": "Kangar",
    "state": "Perlis",
    "postcode": "02500"
  },
  {
    "office": "Taman Pertama",
    "url": "https://postcode.my/perlis-kangar-taman-pertama-01000.html",
    "city": "Kangar",
    "state": "Perlis",
    "postcode": "01000"
  },
  {
    "office": "Taman Pertiwi Indah",
    "url": "https://postcode.my/perlis-kangar-taman-pertiwi-indah-01000.html",
    "city": "Kangar",
    "state": "Perlis",
    "postcode": "01000"
  },
  {
    "office": "Taman Pertiwi Seriab",
    "url": "https://postcode.my/perlis-kangar-taman-pertiwi-seriab-01000.html",
    "city": "Kangar",
    "state": "Perlis",
    "postcode": "01000"
  },
  {
    "office": "Taman Putera",
    "url": "https://postcode.my/perlis-kangar-taman-putera-01000.html",
    "city": "Kangar",
    "state": "Perlis",
    "postcode": "01000"
  },
  {
    "office": "Taman Putra Putri",
    "url": "https://postcode.my/perlis-kangar-taman-putra-putri-01000.html",
    "city": "Kangar",
    "state": "Perlis",
    "postcode": "01000"
  },
  {
    "office": "Taman Rasa Sayang",
    "url": "https://postcode.my/perlis-kangar-taman-rasa-sayang-01000.html",
    "city": "Kangar",
    "state": "Perlis",
    "postcode": "01000"
  },
  {
    "office": "Taman Repoh",
    "url": "https://postcode.my/perlis-kangar-taman-repoh-01000.html",
    "city": "Kangar",
    "state": "Perlis",
    "postcode": "01000"
  },
  {
    "office": "Taman Repoh Indah",
    "url": "https://postcode.my/perlis-kangar-taman-repoh-indah-01000.html",
    "city": "Kangar",
    "state": "Perlis",
    "postcode": "01000"
  },
  {
    "office": "Taman Repoh Jaya",
    "url": "https://postcode.my/perlis-kangar-taman-repoh-jaya-01000.html",
    "city": "Kangar",
    "state": "Perlis",
    "postcode": "01000"
  },
  {
    "office": "Taman Ria",
    "url": "https://postcode.my/perlis-kangar-taman-ria-02500.html",
    "city": "Kangar",
    "state": "Perlis",
    "postcode": "02500"
  },
  {
    "office": "Taman Selasih",
    "url": "https://postcode.my/perlis-kangar-taman-selasih-02500.html",
    "city": "Kangar",
    "state": "Perlis",
    "postcode": "02500"
  },
  {
    "office": "Taman Sempurna Jaya",
    "url": "https://postcode.my/perlis-kangar-taman-sempurna-jaya-02400.html",
    "city": "Kangar",
    "state": "Perlis",
    "postcode": "02400"
  },
  {
    "office": "Taman Sena",
    "url": "https://postcode.my/perlis-kangar-taman-sena-01000.html",
    "city": "Kangar",
    "state": "Perlis",
    "postcode": "01000"
  },
  {
    "office": "Taman Sena Indah",
    "url": "https://postcode.my/perlis-kangar-taman-sena-indah-01000.html",
    "city": "Kangar",
    "state": "Perlis",
    "postcode": "01000"
  },
  {
    "office": "Taman Sena Permai",
    "url": "https://postcode.my/perlis-kangar-taman-sena-permai-01000.html",
    "city": "Kangar",
    "state": "Perlis",
    "postcode": "01000"
  },
  {
    "office": "Taman Sentua",
    "url": "https://postcode.my/perlis-kangar-taman-sentua-01000.html",
    "city": "Kangar",
    "state": "Perlis",
    "postcode": "01000"
  },
  {
    "office": "Taman Sepadu",
    "url": "https://postcode.my/perlis-kangar-taman-sepadu-01000.html",
    "city": "Kangar",
    "state": "Perlis",
    "postcode": "01000"
  },
  {
    "office": "Taman Sepadu 1",
    "url": "https://postcode.my/perlis-kangar-taman-sepadu-1-01000.html",
    "city": "Kangar",
    "state": "Perlis",
    "postcode": "01000"
  },
  {
    "office": "Taman Seri Bahagia",
    "url": "https://postcode.my/perlis-kangar-taman-seri-bahagia-01000.html",
    "city": "Kangar",
    "state": "Perlis",
    "postcode": "01000"
  },
  {
    "office": "Taman Seri Embun",
    "url": "https://postcode.my/perlis-kangar-taman-seri-embun-01000.html",
    "city": "Kangar",
    "state": "Perlis",
    "postcode": "01000"
  },
  {
    "office": "Taman Seri Idaman",
    "url": "https://postcode.my/perlis-kangar-taman-seri-idaman-01000.html",
    "city": "Kangar",
    "state": "Perlis",
    "postcode": "01000"
  },
  {
    "office": "Taman Seri Intan",
    "url": "https://postcode.my/perlis-kangar-taman-seri-intan-01000.html",
    "city": "Kangar",
    "state": "Perlis",
    "postcode": "01000"
  },
  {
    "office": "Taman Seri Manis",
    "url": "https://postcode.my/perlis-kangar-taman-seri-manis-01000.html",
    "city": "Kangar",
    "state": "Perlis",
    "postcode": "01000"
  },
  {
    "office": "Taman Seri Medan",
    "url": "https://postcode.my/perlis-kangar-taman-seri-medan-01000.html",
    "city": "Kangar",
    "state": "Perlis",
    "postcode": "01000"
  },
  {
    "office": "Taman Seri Murni",
    "url": "https://postcode.my/perlis-kangar-taman-seri-murni-01000.html",
    "city": "Kangar",
    "state": "Perlis",
    "postcode": "01000"
  },
  {
    "office": "Taman Seri Pilihan",
    "url": "https://postcode.my/perlis-kangar-taman-seri-pilihan-01000.html",
    "city": "Kangar",
    "state": "Perlis",
    "postcode": "01000"
  },
  {
    "office": "Taman Seri Puchong",
    "url": "https://postcode.my/perlis-kangar-taman-seri-puchong-01000.html",
    "city": "Kangar",
    "state": "Perlis",
    "postcode": "01000"
  },
  {
    "office": "Taman Seri Pulai 4",
    "url": "https://postcode.my/perlis-kangar-taman-seri-pulai-4-01000.html",
    "city": "Kangar",
    "state": "Perlis",
    "postcode": "01000"
  },
  {
    "office": "Taman Seri Tanjung",
    "url": "https://postcode.my/perlis-kangar-taman-seri-tanjung-01000.html",
    "city": "Kangar",
    "state": "Perlis",
    "postcode": "01000"
  },
  {
    "office": "Taman Seriab",
    "url": "https://postcode.my/perlis-kangar-taman-seriab-01000.html",
    "city": "Kangar",
    "state": "Perlis",
    "postcode": "01000"
  },
  {
    "office": "Taman Setia Utama",
    "url": "https://postcode.my/perlis-kangar-taman-setia-utama-01000.html",
    "city": "Kangar",
    "state": "Perlis",
    "postcode": "01000"
  },
  {
    "office": "Taman Simpang Tiga",
    "url": "https://postcode.my/perlis-kangar-taman-simpang-tiga-01000.html",
    "city": "Kangar",
    "state": "Perlis",
    "postcode": "01000"
  },
  {
    "office": "Taman Sri Guar Syed Alwi",
    "url": "https://postcode.my/perlis-kangar-taman-sri-guar-syed-alwi-01000.html",
    "city": "Kangar",
    "state": "Perlis",
    "postcode": "01000"
  },
  {
    "office": "Taman Sri Idaman",
    "url": "https://postcode.my/perlis-kangar-taman-sri-idaman-02500.html",
    "city": "Kangar",
    "state": "Perlis",
    "postcode": "02500"
  },
  {
    "office": "Taman Suriani",
    "url": "https://postcode.my/perlis-kangar-taman-suriani-01000.html",
    "city": "Kangar",
    "state": "Perlis",
    "postcode": "01000"
  },
  {
    "office": "Taman Syed Alwi",
    "url": "https://postcode.my/perlis-kangar-taman-syed-alwi-01000.html",
    "city": "Kangar",
    "state": "Perlis",
    "postcode": "01000"
  },
  {
    "office": "Taman Ten",
    "url": "https://postcode.my/perlis-kangar-taman-ten-01000.html",
    "city": "Kangar",
    "state": "Perlis",
    "postcode": "01000"
  },
  {
    "office": "Taman Teratai",
    "url": "https://postcode.my/perlis-kangar-taman-teratai-01000.html",
    "city": "Kangar",
    "state": "Perlis",
    "postcode": "01000"
  },
  {
    "office": "Taman Tok Peduka",
    "url": "https://postcode.my/perlis-kangar-taman-tok-peduka-01000.html",
    "city": "Kangar",
    "state": "Perlis",
    "postcode": "01000"
  },
  {
    "office": "Taman Tunjung",
    "url": "https://postcode.my/perlis-kangar-taman-tunjung-02450.html",
    "city": "Kangar",
    "state": "Perlis",
    "postcode": "02450"
  },
  {
    "office": "Taman Utama",
    "url": "https://postcode.my/perlis-kangar-taman-utama-01000.html",
    "city": "Kangar",
    "state": "Perlis",
    "postcode": "01000"
  },
  {
    "office": "Taman Utama Indah",
    "url": "https://postcode.my/perlis-kangar-taman-utama-indah-01000.html",
    "city": "Kangar",
    "state": "Perlis",
    "postcode": "01000"
  },
  {
    "office": "Taman Utara",
    "url": "https://postcode.my/perlis-kangar-taman-utara-01000.html",
    "city": "Kangar",
    "state": "Perlis",
    "postcode": "01000"
  },
  {
    "office": "Taman Wira",
    "url": "https://postcode.my/perlis-kangar-taman-wira-01000.html",
    "city": "Kangar",
    "state": "Perlis",
    "postcode": "01000"
  },
  {
    "office": "Telekom Malaysia Berhad",
    "url": "https://postcode.my/perlis-kangar-telekom-malaysia-berhad-01672.html",
    "city": "Kangar",
    "state": "Perlis",
    "postcode": "01672"
  },
  {
    "office": "Tenaga Nasional Berhad",
    "url": "https://postcode.my/perlis-kangar-tenaga-nasional-berhad-01673.html",
    "city": "Kangar",
    "state": "Perlis",
    "postcode": "01673"
  },
  {
    "office": "Titi Chai",
    "url": "https://postcode.my/perlis-kangar-titi-chai-01000.html",
    "city": "Kangar",
    "state": "Perlis",
    "postcode": "01000"
  },
  {
    "office": "Titi Midin",
    "url": "https://postcode.my/perlis-kangar-titi-midin-01000.html",
    "city": "Kangar",
    "state": "Perlis",
    "postcode": "01000"
  },
  {
    "office": "Tok Peduka",
    "url": "https://postcode.my/perlis-kangar-tok-peduka-01000.html",
    "city": "Kangar",
    "state": "Perlis",
    "postcode": "01000"
  },
  {
    "office": "Ujung Batu",
    "url": "https://postcode.my/perlis-kangar-ujung-batu-01000.html",
    "city": "Kangar",
    "state": "Perlis",
    "postcode": "01000"
  },
  {
    "office": "Unit Pencegah Penyeludupan",
    "url": "https://postcode.my/perlis-kangar-unit-pencegah-penyeludupan-01546.html",
    "city": "Kangar",
    "state": "Perlis",
    "postcode": "01546"
  },
  {
    "office": "Unit Penguatkuasa Kem. Perdagangan & Perindustrian",
    "url": "https://postcode.my/perlis-kangar-unit-penguatkuasa-kem-perdagangan-perindustrian-01622.html",
    "city": "Kangar",
    "state": "Perlis",
    "postcode": "01622"
  },
  {
    "office": "Unit Penyelidikan Sosio Ekonomi",
    "url": "https://postcode.my/perlis-kangar-unit-penyelidikan-sosio-ekonomi-01529.html",
    "city": "Kangar",
    "state": "Perlis",
    "postcode": "01529"
  },
  {
    "office": "YAB Menteri Besar Perlis",
    "url": "https://postcode.my/perlis-kangar-yab-menteri-besar-perlis-01502.html",
    "city": "Kangar",
    "state": "Perlis",
    "postcode": "01502"
  }
]